{
"type": "FeatureCollection",
"name": "cropland",
"crs": { "type": "name", "properties": { "name": "urn:ogc:def:crs:OGC:1.3:CRS84" } },
"xy_coordinate_resolution": 1e-06,
"features": [
{ "type": "Feature", "properties": { "name": "Cropland", "type": "land-cover", "area_ha": 376432.8 }, "geometry": { "type": "MultiPolygon", "coordinates": [ [ [ [ 35.239472, -1.046543 ], [ 35.23897, -1.042661 ], [ 35.240123, -1.041808 ], [ 35.241179, -1.042651 ], [ 35.241975, -1.041149 ], [ 35.240348, -1.040326 ], [ 35.243367, -1.039483 ], [ 35.244229, -1.039953 ], [ 35.244543, -1.039246 ], [ 35.243806, -1.039493 ], [ 35.242481, -1.03794 ], [ 35.241445, -1.037971 ], [ 35.241353, -1.037839 ], [ 35.243622, -1.035917 ], [ 35.24501, -1.038021 ], [ 35.245268, -1.036954 ], [ 35.247385, -1.036641 ], [ 35.249052, -1.035288 ], [ 35.249816, -1.034073 ], [ 35.248644, -1.03344 ], [ 35.249266, -1.031709 ], [ 35.25235, -1.031518 ], [ 35.25192, -1.028602 ], [ 35.253546, -1.030323 ], [ 35.255124, -1.030658 ], [ 35.258783, -1.029271 ], [ 35.258615, -1.027765 ], [ 35.259765, -1.027451 ], [ 35.260982, -1.022719 ], [ 35.263469, -1.022528 ], [ 35.265023, -1.021357 ], [ 35.265693, -1.023006 ], [ 35.267486, -1.0226 ], [ 35.269136, -1.024537 ], [ 35.270092, -1.023724 ], [ 35.271766, -1.024417 ], [ 35.272102, -1.023705 ], [ 35.270308, -1.02138 ], [ 35.271742, -1.020663 ], [ 35.27222, -1.022193 ], [ 35.272845, -1.022317 ], [ 35.272331, -1.02151 ], [ 35.275896, -1.020578 ], [ 35.276285, -1.019587 ], [ 35.27784, -1.019826 ], [ 35.279083, -1.017914 ], [ 35.280876, -1.01801 ], [ 35.282789, -1.014137 ], [ 35.282005, -1.013109 ], [ 35.285348, -1.015404 ], [ 35.287093, -1.012248 ], [ 35.288719, -1.012295 ], [ 35.289675, -1.013563 ], [ 35.290417, -1.010502 ], [ 35.296442, -1.009053 ], [ 35.297041, -1.006845 ], [ 35.297997, -1.006271 ], [ 35.298117, -1.007371 ], [ 35.29881, -1.00694 ], [ 35.29991, -1.004119 ], [ 35.300723, -1.003928 ], [ 35.30113, -1.005554 ], [ 35.303219, -1.004896 ], [ 35.303232, -1.006194 ], [ 35.308829, -1.00281 ], [ 35.308614, -1.001256 ], [ 35.310288, -1.002236 ], [ 35.310838, -1.001375 ], [ 35.313516, -1.001949 ], [ 35.313348, -1.000969 ], [ 35.314247, -1.000927 ], [ 35.311914, -0.998625 ], [ 35.311859, -0.997128 ], [ 35.312748, -0.996378 ], [ 35.312679, -0.99743 ], [ 35.313497, -0.997581 ], [ 35.314831, -0.996379 ], [ 35.316652, -0.996256 ], [ 35.314855, -0.994562 ], [ 35.314974, -0.993079 ], [ 35.316098, -0.99284 ], [ 35.315859, -0.991764 ], [ 35.31818, -0.992066 ], [ 35.318824, -0.990736 ], [ 35.320426, -0.990019 ], [ 35.319924, -0.988488 ], [ 35.322995, -0.989882 ], [ 35.325112, -0.986862 ], [ 35.32638, -0.987651 ], [ 35.328747, -0.987341 ], [ 35.330134, -0.984735 ], [ 35.333259, -0.985982 ], [ 35.332942, -0.983874 ], [ 35.329632, -0.982225 ], [ 35.332668, -0.979905 ], [ 35.333689, -0.977231 ], [ 35.334771, -0.977119 ], [ 35.335992, -0.978877 ], [ 35.33981, -0.980515 ], [ 35.341038, -0.979045 ], [ 35.33953, -0.97738 ], [ 35.340672, -0.975469 ], [ 35.343001, -0.975868 ], [ 35.344382, -0.973648 ], [ 35.346872, -0.972614 ], [ 35.34747, -0.974 ], [ 35.349431, -0.974503 ], [ 35.347555, -0.976783 ], [ 35.351463, -0.980192 ], [ 35.351559, -0.977156 ], [ 35.3501, -0.973642 ], [ 35.353211, -0.972289 ], [ 35.351546, -0.971681 ], [ 35.353018, -0.968402 ], [ 35.354357, -0.967497 ], [ 35.356652, -0.967425 ], [ 35.356843, -0.968381 ], [ 35.354234, -0.96857 ], [ 35.354203, -0.969351 ], [ 35.359402, -0.971705 ], [ 35.359067, -0.97314 ], [ 35.359614, -0.973411 ], [ 35.361697, -0.973211 ], [ 35.363513, -0.970998 ], [ 35.366216, -0.973116 ], [ 35.365475, -0.976749 ], [ 35.36661, -0.977792 ], [ 35.367221, -0.97455 ], [ 35.36887, -0.973737 ], [ 35.368129, -0.974932 ], [ 35.368655, -0.975386 ], [ 35.37064, -0.974407 ], [ 35.369994, -0.969768 ], [ 35.371721, -0.970036 ], [ 35.373018, -0.971769 ], [ 35.376373, -0.968458 ], [ 35.378339, -0.961903 ], [ 35.379492, -0.96312 ], [ 35.381041, -0.961424 ], [ 35.383622, -0.962065 ], [ 35.383483, -0.960449 ], [ 35.384335, -0.959574 ], [ 35.385436, -0.960982 ], [ 35.386646, -0.961094 ], [ 35.388613, -0.959043 ], [ 35.393691, -0.959296 ], [ 35.394791, -0.957479 ], [ 35.39689, -0.957676 ], [ 35.39833, -0.958985 ], [ 35.401866, -0.956417 ], [ 35.402546, -0.954245 ], [ 35.403666, -0.953821 ], [ 35.403539, -0.950495 ], [ 35.405199, -0.950144 ], [ 35.405691, -0.951274 ], [ 35.410783, -0.948639 ], [ 35.412211, -0.949358 ], [ 35.414278, -0.947581 ], [ 35.418682, -0.94694 ], [ 35.421412, -0.94742 ], [ 35.422226, -0.946417 ], [ 35.42139, -0.944385 ], [ 35.421885, -0.942179 ], [ 35.424574, -0.942582 ], [ 35.425082, -0.941727 ], [ 35.422408, -0.937707 ], [ 35.422671, -0.936774 ], [ 35.424488, -0.936631 ], [ 35.424916, -0.937663 ], [ 35.425973, -0.936899 ], [ 35.437432, -0.946561 ], [ 35.460738, -0.932768 ], [ 35.470013, -0.925395 ], [ 35.475482, -0.915645 ], [ 35.486422, -0.904943 ], [ 35.466683, -0.908273 ], [ 35.450036, -0.90637 ], [ 35.453365, -0.892339 ], [ 35.456772, -0.885433 ], [ 35.455682, -0.884295 ], [ 35.457218, -0.884 ], [ 35.456674, -0.882928 ], [ 35.457521, -0.882008 ], [ 35.45635, -0.881264 ], [ 35.456202, -0.878656 ], [ 35.45812, -0.877828 ], [ 35.458815, -0.875147 ], [ 35.460486, -0.876478 ], [ 35.460865, -0.874423 ], [ 35.461555, -0.874115 ], [ 35.461525, -0.874946 ], [ 35.4623, -0.875058 ], [ 35.463149, -0.874213 ], [ 35.461755, -0.872602 ], [ 35.461764, -0.870346 ], [ 35.462711, -0.870562 ], [ 35.463431, -0.869546 ], [ 35.462663, -0.868892 ], [ 35.462018, -0.865473 ], [ 35.466214, -0.865317 ], [ 35.467565, -0.863832 ], [ 35.468892, -0.865099 ], [ 35.469741, -0.864621 ], [ 35.469298, -0.862828 ], [ 35.470661, -0.863198 ], [ 35.470661, -0.861502 ], [ 35.472931, -0.861328 ], [ 35.472232, -0.861969 ], [ 35.472703, -0.862408 ], [ 35.473972, -0.861788 ], [ 35.471954, -0.858999 ], [ 35.472299, -0.857962 ], [ 35.473443, -0.858046 ], [ 35.475703, -0.85593 ], [ 35.477396, -0.857186 ], [ 35.478436, -0.855994 ], [ 35.477155, -0.855382 ], [ 35.478568, -0.85235 ], [ 35.480414, -0.852785 ], [ 35.479532, -0.850635 ], [ 35.480668, -0.849762 ], [ 35.478098, -0.847395 ], [ 35.478895, -0.844777 ], [ 35.4808, -0.843898 ], [ 35.48007, -0.841932 ], [ 35.480776, -0.840915 ], [ 35.482784, -0.840377 ], [ 35.482772, -0.83843 ], [ 35.485361, -0.83794 ], [ 35.48532, -0.836732 ], [ 35.486408, -0.836254 ], [ 35.485589, -0.834981 ], [ 35.488345, -0.835142 ], [ 35.487603, -0.833396 ], [ 35.488273, -0.832153 ], [ 35.491369, -0.832539 ], [ 35.492063, -0.830052 ], [ 35.493927, -0.830675 ], [ 35.495482, -0.830057 ], [ 35.495793, -0.826945 ], [ 35.497096, -0.826837 ], [ 35.498232, -0.825558 ], [ 35.501201, -0.825253 ], [ 35.500907, -0.826802 ], [ 35.501558, -0.82719 ], [ 35.502525, -0.825642 ], [ 35.510411, -0.824887 ], [ 35.512249, -0.822689 ], [ 35.512494, -0.820181 ], [ 35.514226, -0.820199 ], [ 35.513512, -0.818371 ], [ 35.515801, -0.818189 ], [ 35.517657, -0.819457 ], [ 35.518445, -0.817725 ], [ 35.521222, -0.817293 ], [ 35.520182, -0.814801 ], [ 35.52153, -0.810892 ], [ 35.527608, -0.810883 ], [ 35.52817, -0.80812 ], [ 35.531244, -0.807 ], [ 35.532881, -0.804007 ], [ 35.534772, -0.804159 ], [ 35.534602, -0.802393 ], [ 35.535688, -0.800881 ], [ 35.538841, -0.800003 ], [ 35.538843, -0.798307 ], [ 35.541667, -0.79731 ], [ 35.542468, -0.794692 ], [ 35.545033, -0.793722 ], [ 35.547516, -0.78936 ], [ 35.562648, -0.779465 ], [ 35.568716, -0.789532 ], [ 35.5803, -0.79036 ], [ 35.588851, -0.816286 ], [ 35.59023, -0.823182 ], [ 35.575887, -0.832008 ], [ 35.571474, -0.841937 ], [ 35.572853, -0.851591 ], [ 35.578094, -0.856556 ], [ 35.587472, -0.85821 ], [ 35.599608, -0.865933 ], [ 35.606779, -0.869519 ], [ 35.612847, -0.866209 ], [ 35.619742, -0.863727 ], [ 35.63436, -0.862899 ], [ 35.645393, -0.860417 ], [ 35.65615, -0.855452 ], [ 35.668837, -0.842489 ], [ 35.672699, -0.841386 ], [ 35.678215, -0.844144 ], [ 35.682077, -0.852142 ], [ 35.682628, -0.858486 ], [ 35.692006, -0.851867 ], [ 35.697798, -0.84966 ], [ 35.704694, -0.84966 ], [ 35.710762, -0.846626 ], [ 35.71413, -0.859045 ], [ 35.711038, -0.883064 ], [ 35.712703, -0.885442 ], [ 35.719599, -0.881875 ], [ 35.728161, -0.879497 ], [ 35.72721, -0.868557 ], [ 35.727685, -0.857975 ], [ 35.734701, -0.850127 ], [ 35.741254, -0.850345 ], [ 35.741335, -0.856866 ], [ 35.740086, -0.857265 ], [ 35.738372, -0.860116 ], [ 35.736407, -0.86584 ], [ 35.737935, -0.868991 ], [ 35.738444, -0.874399 ], [ 35.737824, -0.875828 ], [ 35.738596, -0.880188 ], [ 35.740612, -0.883864 ], [ 35.742749, -0.890549 ], [ 35.742108, -0.893343 ], [ 35.740328, -0.895922 ], [ 35.7412, -0.89818 ], [ 35.742536, -0.898881 ], [ 35.752931, -0.897459 ], [ 35.756052, -0.896122 ], [ 35.76118, -0.895787 ], [ 35.771882, -0.901807 ], [ 35.779796, -0.903145 ], [ 35.784367, -0.902922 ], [ 35.788603, -0.901138 ], [ 35.79139, -0.900915 ], [ 35.794846, -0.908607 ], [ 35.794623, -0.916187 ], [ 35.806662, -0.936476 ], [ 35.812459, -0.944279 ], [ 35.810006, -0.950745 ], [ 35.815803, -0.960555 ], [ 35.820262, -0.972148 ], [ 35.8216, -0.978614 ], [ 35.823606, -1.00403 ], [ 35.84278, -0.946063 ], [ 35.856157, -0.902364 ], [ 35.859279, -0.897905 ], [ 35.866413, -0.906823 ], [ 35.870426, -0.917079 ], [ 35.873548, -0.928227 ], [ 35.874885, -0.943833 ], [ 35.877561, -0.960332 ], [ 35.873102, -0.964791 ], [ 35.876223, -0.971033 ], [ 35.882911, -0.964791 ], [ 35.886033, -0.958994 ], [ 35.877115, -0.915296 ], [ 35.873102, -0.901918 ], [ 35.869088, -0.891663 ], [ 35.867305, -0.889433 ], [ 35.874662, -0.867138 ], [ 35.876, -0.85443 ], [ 35.869534, -0.839938 ], [ 35.871541, -0.80761 ], [ 35.877093, -0.783441 ], [ 35.881351, -0.759006 ], [ 35.876446, -0.751872 ], [ 35.878007, -0.742508 ], [ 35.892498, -0.730915 ], [ 35.897403, -0.722442 ], [ 35.895174, -0.701931 ], [ 35.880013, -0.693013 ], [ 35.872433, -0.693905 ], [ 35.867974, -0.701485 ], [ 35.865744, -0.71397 ], [ 35.863515, -0.690783 ], [ 35.847908, -0.697026 ], [ 35.847462, -0.688108 ], [ 35.851921, -0.67696 ], [ 35.848354, -0.670272 ], [ 35.843895, -0.674285 ], [ 35.837206, -0.688554 ], [ 35.832301, -0.67696 ], [ 35.829626, -0.663137 ], [ 35.824275, -0.660016 ], [ 35.817141, -0.65957 ], [ 35.81179, -0.663583 ], [ 35.810452, -0.673839 ], [ 35.799305, -0.674731 ], [ 35.805101, -0.65957 ], [ 35.793954, -0.654665 ], [ 35.791724, -0.636829 ], [ 35.794846, -0.620331 ], [ 35.7944, -0.614534 ], [ 35.797967, -0.601603 ], [ 35.802872, -0.59536 ], [ 35.797967, -0.594914 ], [ 35.788603, -0.603832 ], [ 35.785036, -0.610075 ], [ 35.774334, -0.618101 ], [ 35.773888, -0.631032 ], [ 35.770767, -0.638167 ], [ 35.766308, -0.635045 ], [ 35.758727, -0.634154 ], [ 35.74758, -0.638167 ], [ 35.743567, -0.636383 ], [ 35.73554, -0.627911 ], [ 35.745796, -0.614088 ], [ 35.744459, -0.605616 ], [ 35.734649, -0.609183 ], [ 35.734492, -0.583498 ], [ 35.713502, -0.562065 ], [ 35.71367, -0.559387 ], [ 35.712676, -0.558935 ], [ 35.711782, -0.559788 ], [ 35.711782, -0.561192 ], [ 35.709934, -0.559714 ], [ 35.71233, -0.553854 ], [ 35.718654, -0.552893 ], [ 35.720796, -0.550644 ], [ 35.725232, -0.548471 ], [ 35.735225, -0.533947 ], [ 35.737046, -0.533922 ], [ 35.741258, -0.530757 ], [ 35.774324, -0.538202 ], [ 35.779183, -0.514135 ], [ 35.795654, -0.474843 ], [ 35.795744, -0.467035 ], [ 35.798331, -0.457934 ], [ 35.798777, -0.457086 ], [ 35.805408, -0.456408 ], [ 35.813681, -0.458603 ], [ 35.816983, -0.466455 ], [ 35.815241, -0.477123 ], [ 35.829128, -0.47345 ], [ 35.831132, -0.468698 ], [ 35.833066, -0.467304 ], [ 35.837633, -0.467681 ], [ 35.839982, -0.473799 ], [ 35.83287, -0.494921 ], [ 35.845364, -0.49974 ], [ 35.855085, -0.505075 ], [ 35.853887, -0.50679 ], [ 35.891109, -0.526053 ], [ 35.905205, -0.546457 ], [ 35.913058, -0.549579 ], [ 35.933794, -0.55114 ], [ 35.934592, -0.554894 ], [ 35.936637, -0.557082 ], [ 35.945244, -0.555543 ], [ 35.948128, -0.557755 ], [ 35.948015, -0.56433 ], [ 35.949046, -0.56699 ], [ 35.952729, -0.569347 ], [ 35.983359, -0.631503 ], [ 35.95159, -0.666418 ], [ 35.916982, -0.635946 ], [ 35.876608, -0.638171 ], [ 35.878895, -0.651198 ], [ 35.894125, -0.650149 ], [ 35.946983, -0.713612 ], [ 36.012113, -0.664036 ], [ 36.029354, -0.679361 ], [ 36.03758, -0.693609 ], [ 36.0528, -0.702065 ], [ 36.060129, -0.711084 ], [ 36.063511, -0.737579 ], [ 36.071403, -0.760127 ], [ 36.071966, -0.799869 ], [ 36.073658, -0.814243 ], [ 36.082113, -0.82749 ], [ 36.08916, -0.835664 ], [ 36.091296, -0.857992 ], [ 36.093895, -0.854954 ], [ 36.098435, -0.853578 ], [ 36.10395, -0.849095 ], [ 36.106493, -0.844738 ], [ 36.106247, -0.842975 ], [ 36.108026, -0.841205 ], [ 36.108406, -0.842805 ], [ 36.111966, -0.846375 ], [ 36.111266, -0.861824 ], [ 36.108866, -0.870194 ], [ 36.109046, -0.873614 ], [ 36.107806, -0.877193 ], [ 36.108376, -0.885713 ], [ 36.107086, -0.889923 ], [ 36.108147, -0.892074 ], [ 36.110018, -0.89105 ], [ 36.116669, -0.890566 ], [ 36.117872, -0.889527 ], [ 36.113963, -0.880197 ], [ 36.116781, -0.870614 ], [ 36.120727, -0.861031 ], [ 36.119036, -0.858776 ], [ 36.118754, -0.846375 ], [ 36.1165, -0.83651 ], [ 36.109453, -0.82129 ], [ 36.102407, -0.800714 ], [ 36.106353, -0.787749 ], [ 36.110581, -0.784085 ], [ 36.121291, -0.795923 ], [ 36.142994, -0.8351 ], [ 36.147504, -0.84412 ], [ 36.137639, -0.862158 ], [ 36.134884, -0.901571 ], [ 36.130512, -0.900544 ], [ 36.129984, -0.898599 ], [ 36.125423, -0.894419 ], [ 36.117196, -0.901287 ], [ 36.107387, -0.899503 ], [ 36.087767, -0.920609 ], [ 36.079146, -0.926555 ], [ 36.069931, -0.936067 ], [ 36.06131, -0.943202 ], [ 36.063094, -0.951525 ], [ 36.068147, -0.944688 ], [ 36.081227, -0.929825 ], [ 36.091037, -0.926852 ], [ 36.102333, -0.921501 ], [ 36.106495, -0.911097 ], [ 36.108278, -0.913772 ], [ 36.109467, -0.920312 ], [ 36.108576, -0.933095 ], [ 36.099063, -0.941715 ], [ 36.092523, -0.952417 ], [ 36.077957, -0.98363 ], [ 36.081821, -0.987495 ], [ 36.091631, -0.974712 ], [ 36.102333, -0.948255 ], [ 36.113926, -0.946174 ], [ 36.106495, -0.959551 ], [ 36.093712, -0.979171 ], [ 36.091631, -0.988387 ], [ 36.097874, -0.988684 ], [ 36.113332, -0.975307 ], [ 36.134141, -0.959254 ], [ 36.131763, -0.96847 ], [ 36.127304, -0.97382 ], [ 36.126709, -0.981549 ], [ 36.127601, -0.988089 ], [ 36.127898, -1.001466 ], [ 36.130871, -1.008006 ], [ 36.133546, -0.998494 ], [ 36.134141, -0.97709 ], [ 36.144545, -0.975901 ], [ 36.150788, -0.972334 ], [ 36.156436, -0.959551 ], [ 36.152869, -0.952417 ], [ 36.146626, -0.95539 ], [ 36.144545, -0.949147 ], [ 36.142464, -0.937256 ], [ 36.147221, -0.922393 ], [ 36.152436, -0.928958 ], [ 36.159764, -0.924448 ], [ 36.169911, -0.916275 ], [ 36.181185, -0.914302 ], [ 36.195449, -0.915338 ], [ 36.206882, -0.933833 ], [ 36.250326, -0.919038 ], [ 36.243475, -0.929804 ], [ 36.245166, -0.946433 ], [ 36.253904, -0.950661 ], [ 36.251085, -0.961653 ], [ 36.247703, -0.967008 ], [ 36.24883, -0.981947 ], [ 36.242911, -0.996321 ], [ 36.241784, -1.003368 ], [ 36.248549, -0.997449 ], [ 36.257286, -0.981101 ], [ 36.266024, -0.967008 ], [ 36.271942, -0.96419 ], [ 36.280398, -0.963626 ], [ 36.288003, -0.957992 ], [ 36.323653, -1.023413 ], [ 36.307456, -1.057766 ], [ 36.277016, -1.106808 ], [ 36.247703, -1.117519 ], [ 36.23361, -1.145704 ], [ 36.225718, -1.200948 ], [ 36.210498, -1.187983 ], [ 36.211626, -1.159797 ], [ 36.200915, -1.154724 ], [ 36.174984, -1.162616 ], [ 36.169347, -1.171071 ], [ 36.165401, -1.150778 ], [ 36.156382, -1.15867 ], [ 36.156946, -1.172763 ], [ 36.162019, -1.187419 ], [ 36.167656, -1.195311 ], [ 36.169347, -1.223496 ], [ 36.187386, -1.216168 ], [ 36.199788, -1.216732 ], [ 36.194151, -1.240971 ], [ 36.175548, -1.246608 ], [ 36.175548, -1.230825 ], [ 36.147926, -1.226315 ], [ 36.131015, -1.212786 ], [ 36.119177, -1.217296 ], [ 36.10903, -1.22857 ], [ 36.097756, -1.231388 ], [ 36.085918, -1.218423 ], [ 36.080281, -1.206021 ], [ 36.073517, -1.194747 ], [ 36.052659, -1.196438 ], [ 36.022219, -1.200948 ], [ 36.014327, -1.198129 ], [ 36.009254, -1.178963 ], [ 36.010381, -1.156415 ], [ 36.032366, -1.144577 ], [ 36.059988, -1.110191 ], [ 36.059424, -1.100044 ], [ 36.075771, -1.089897 ], [ 36.065625, -1.076932 ], [ 36.04364, -1.092152 ], [ 36.031802, -1.110754 ], [ 36.021655, -1.120901 ], [ 36.001926, -1.136121 ], [ 35.974867, -1.137813 ], [ 35.961338, -1.144577 ], [ 35.939642, -1.142545 ], [ 35.872836, -1.115264 ], [ 35.872272, -1.137813 ], [ 35.875655, -1.157542 ], [ 35.88411, -1.179527 ], [ 35.863253, -1.176145 ], [ 35.846342, -1.125975 ], [ 35.836195, -1.1147 ], [ 35.788843, -1.124283 ], [ 35.777005, -1.11921 ], [ 35.757839, -1.136685 ], [ 35.737546, -1.147959 ], [ 35.717816, -1.132739 ], [ 35.689067, -1.116955 ], [ 35.679484, -1.137249 ], [ 35.666518, -1.145141 ], [ 35.712179, -1.174454 ], [ 35.69414, -1.195875 ], [ 35.6, -1.131048 ], [ 35.547575, -1.14345 ], [ 35.505297, -1.136685 ], [ 35.451745, -1.111882 ], [ 35.413413, -1.125411 ], [ 35.377335, -1.125975 ], [ 35.368316, -1.09948 ], [ 35.355914, -1.076932 ], [ 35.335057, -1.074395 ], [ 35.31279, -1.04931 ], [ 35.299825, -1.051847 ], [ 35.289678, -1.05692 ], [ 35.284605, -1.066785 ], [ 35.274176, -1.062275 ], [ 35.269948, -1.052411 ], [ 35.238671, -1.047848 ], [ 35.239472, -1.046543 ] ], [ [ 35.901082, -0.865614 ], [ 35.905838, -0.873343 ], [ 35.899298, -0.888801 ], [ 35.89692, -0.926852 ], [ 35.905838, -0.943499 ], [ 35.908811, -0.944391 ], [ 35.914459, -0.954498 ], [ 35.91327, -0.965497 ], [ 35.917135, -0.97709 ], [ 35.933187, -0.998196 ], [ 35.935565, -0.995818 ], [ 35.932295, -0.982738 ], [ 35.941511, -0.967875 ], [ 35.957563, -0.917934 ], [ 35.968859, -0.89326 ], [ 35.972129, -0.883153 ], [ 35.973021, -0.87483 ], [ 35.975399, -0.868587 ], [ 35.992938, -0.8454 ], [ 35.990263, -0.841238 ], [ 35.984912, -0.848967 ], [ 35.971832, -0.860858 ], [ 35.964103, -0.87156 ], [ 35.959644, -0.882262 ], [ 35.956969, -0.879396 ], [ 35.958792, -0.871846 ], [ 35.963535, -0.864547 ], [ 35.971237, -0.85521 ], [ 35.98729, -0.831131 ], [ 35.988182, -0.825186 ], [ 35.997397, -0.817457 ], [ 36.002153, -0.811809 ], [ 35.997397, -0.811809 ], [ 35.987587, -0.821619 ], [ 35.979264, -0.831429 ], [ 35.975399, -0.827861 ], [ 35.965292, -0.832618 ], [ 35.965589, -0.826375 ], [ 35.977777, -0.820727 ], [ 35.984615, -0.81389 ], [ 35.994424, -0.807053 ], [ 35.997397, -0.799026 ], [ 36.006612, -0.789514 ], [ 36.005126, -0.787136 ], [ 35.994722, -0.785946 ], [ 35.990857, -0.78773 ], [ 35.985209, -0.794567 ], [ 35.976886, -0.799621 ], [ 35.970048, -0.799026 ], [ 35.969454, -0.79427 ], [ 35.976588, -0.78119 ], [ 35.969454, -0.773461 ], [ 35.967076, -0.78119 ], [ 35.957563, -0.796648 ], [ 35.943294, -0.803188 ], [ 35.927836, -0.803783 ], [ 35.921296, -0.808539 ], [ 35.908811, -0.806161 ], [ 35.902271, -0.811512 ], [ 35.901082, -0.865614 ] ] ], [ [ [ 36.156523, -0.803251 ], [ 36.154832, -0.787185 ], [ 36.149758, -0.771401 ], [ 36.15455, -0.761536 ], [ 36.15145, -0.753644 ], [ 36.144121, -0.755335 ], [ 36.136229, -0.750826 ], [ 36.134256, -0.738424 ], [ 36.139612, -0.736733 ], [ 36.141585, -0.741806 ], [ 36.159913, -0.741889 ], [ 36.163462, -0.746588 ], [ 36.164739, -0.746323 ], [ 36.166354, -0.747687 ], [ 36.168964, -0.74764 ], [ 36.169884, -0.748511 ], [ 36.170616, -0.751725 ], [ 36.172436, -0.754304 ], [ 36.176117, -0.755322 ], [ 36.181002, -0.758311 ], [ 36.184057, -0.759238 ], [ 36.185639, -0.762168 ], [ 36.188856, -0.764312 ], [ 36.189879, -0.765935 ], [ 36.191928, -0.764202 ], [ 36.193793, -0.767499 ], [ 36.184432, -0.779068 ], [ 36.191684, -0.784562 ], [ 36.189282, -0.804625 ], [ 36.164039, -0.831054 ], [ 36.159623, -0.817344 ], [ 36.156523, -0.803251 ] ] ] ] } },
{ "type": "Feature", "properties": { "name": "Cropland", "type": "land-cover", "area_ha": 14294.7 }, "geometry": { "type": "MultiPolygon", "coordinates": [ [ [ [ 35.777061, -1.119194 ], [ 35.789027, -1.124362 ], [ 35.83619, -1.114701 ], [ 35.846343, -1.125975 ], [ 35.863252, -1.176148 ], [ 35.88411, -1.179527 ], [ 35.875656, -1.157543 ], [ 35.872275, -1.137818 ], [ 35.872808, -1.11527 ], [ 35.939625, -1.142552 ], [ 35.921373, -1.176811 ], [ 35.91765, -1.182025 ], [ 35.885315, -1.213951 ], [ 35.883475, -1.212625 ], [ 35.877594, -1.214033 ], [ 35.877499, -1.215615 ], [ 35.879411, -1.215978 ], [ 35.880338, -1.21737 ], [ 35.876903, -1.219728 ], [ 35.875647, -1.218855 ], [ 35.874872, -1.216208 ], [ 35.870873, -1.214197 ], [ 35.866771, -1.216006 ], [ 35.865347, -1.218879 ], [ 35.862583, -1.215078 ], [ 35.860687, -1.214603 ], [ 35.858081, -1.21611 ], [ 35.857764, -1.218939 ], [ 35.854339, -1.220856 ], [ 35.851649, -1.220818 ], [ 35.848475, -1.219299 ], [ 35.845041, -1.222201 ], [ 35.84485, -1.224836 ], [ 35.847961, -1.226085 ], [ 35.848143, -1.227692 ], [ 35.846564, -1.228886 ], [ 35.843617, -1.228674 ], [ 35.841407, -1.229499 ], [ 35.841437, -1.227574 ], [ 35.840129, -1.225875 ], [ 35.838738, -1.225624 ], [ 35.836955, -1.223016 ], [ 35.834218, -1.22315 ], [ 35.832579, -1.219899 ], [ 35.829501, -1.217899 ], [ 35.83026, -1.215025 ], [ 35.828962, -1.214301 ], [ 35.82901, -1.212827 ], [ 35.821492, -1.207392 ], [ 35.82195, -1.204737 ], [ 35.819282, -1.20362 ], [ 35.819711, -1.200848 ], [ 35.8182, -1.200014 ], [ 35.819301, -1.196951 ], [ 35.819134, -1.194391 ], [ 35.814826, -1.192118 ], [ 35.811691, -1.186801 ], [ 35.807428, -1.186143 ], [ 35.807141, -1.18505 ], [ 35.805789, -1.184975 ], [ 35.80531, -1.182995 ], [ 35.802809, -1.18289 ], [ 35.801804, -1.18104 ], [ 35.800036, -1.181262 ], [ 35.799163, -1.183683 ], [ 35.796374, -1.184899 ], [ 35.795698, -1.182857 ], [ 35.794418, -1.182816 ], [ 35.793344, -1.184087 ], [ 35.789515, -1.181959 ], [ 35.786754, -1.182584 ], [ 35.786356, -1.181106 ], [ 35.782392, -1.181639 ], [ 35.780645, -1.180049 ], [ 35.77883, -1.179756 ], [ 35.777839, -1.178491 ], [ 35.778258, -1.177507 ], [ 35.777202, -1.1747 ], [ 35.775775, -1.175618 ], [ 35.775159, -1.174526 ], [ 35.775608, -1.172669 ], [ 35.774262, -1.172382 ], [ 35.771276, -1.168359 ], [ 35.770175, -1.168455 ], [ 35.769541, -1.166634 ], [ 35.767052, -1.164793 ], [ 35.763678, -1.166785 ], [ 35.76162, -1.16572 ], [ 35.759759, -1.166115 ], [ 35.760202, -1.162944 ], [ 35.758311, -1.161121 ], [ 35.757426, -1.158911 ], [ 35.759526, -1.1577 ], [ 35.758568, -1.154652 ], [ 35.760094, -1.151096 ], [ 35.758251, -1.149728 ], [ 35.755768, -1.149943 ], [ 35.755565, -1.146789 ], [ 35.75359, -1.144811 ], [ 35.752771, -1.141796 ], [ 35.750246, -1.141421 ], [ 35.74793, -1.142182 ], [ 35.757844, -1.136684 ], [ 35.777061, -1.119194 ] ] ], [ [ [ 35.751268, -1.141835 ], [ 35.751302, -1.141833 ], [ 35.751395, -1.141851 ], [ 35.751268, -1.141835 ] ] ], [ [ [ 35.751268, -1.141835 ], [ 35.751203, -1.141838 ], [ 35.750838, -1.141778 ], [ 35.751268, -1.141835 ] ] ] ] } }
]
}
