{
"type": "FeatureCollection",
"name": "forest",
"crs": { "type": "name", "properties": { "name": "urn:ogc:def:crs:OGC:1.3:CRS84" } },
"xy_coordinate_resolution": 1e-06,
"features": [
{ "type": "Feature", "properties": { "name": "Forest cover", "type": "land-cover", "area_ha": 49646.6 }, "geometry": { "type": "Polygon", "coordinates": [ [ [ 35.962754, -2.000918 ], [ 35.954618, -1.994229 ], [ 35.952342, -1.994505 ], [ 35.950756, -1.996436 ], [ 35.950205, -1.998504 ], [ 35.951308, -2.001538 ], [ 35.955238, -2.005745 ], [ 35.957031, -2.005124 ], [ 35.958479, -2.00278 ], [ 35.959858, -2.002159 ], [ 35.965168, -2.005814 ], [ 35.955031, -2.008503 ], [ 35.953032, -2.016846 ], [ 35.951653, -2.019191 ], [ 35.947515, -2.022156 ], [ 35.949929, -2.025052 ], [ 35.953721, -2.025328 ], [ 35.957859, -2.023466 ], [ 35.959376, -2.018156 ], [ 35.961996, -2.018777 ], [ 35.964478, -2.020432 ], [ 35.966271, -2.026638 ], [ 35.967788, -2.028362 ], [ 35.968202, -2.030223 ], [ 35.963651, -2.028982 ], [ 35.957686, -2.03836 ], [ 35.954376, -2.039325 ], [ 35.959962, -2.042359 ], [ 35.961341, -2.043669 ], [ 35.961823, -2.0456 ], [ 35.965271, -2.046152 ], [ 35.966581, -2.047324 ], [ 35.969822, -2.052702 ], [ 35.969064, -2.05877 ], [ 35.970994, -2.061184 ], [ 35.97389, -2.063045 ], [ 35.977959, -2.064287 ], [ 35.976786, -2.062218 ], [ 35.977821, -2.061666 ], [ 35.982165, -2.061735 ], [ 35.983544, -2.062839 ], [ 35.982992, -2.06539 ], [ 35.9792, -2.068355 ], [ 35.977062, -2.069389 ], [ 35.972718, -2.069803 ], [ 35.971753, -2.070837 ], [ 35.972304, -2.072423 ], [ 35.968029, -2.07794 ], [ 35.962789, -2.078353 ], [ 35.962789, -2.079801 ], [ 35.961166, -2.081781 ], [ 35.96436, -2.0835 ], [ 35.964383, -2.084836 ], [ 35.931223, -2.066076 ], [ 35.932932, -2.060425 ], [ 35.931415, -2.058081 ], [ 35.926726, -2.056288 ], [ 35.924657, -2.056288 ], [ 35.925071, -2.051392 ], [ 35.926174, -2.050634 ], [ 35.927691, -2.051737 ], [ 35.927208, -2.046083 ], [ 35.933173, -2.043256 ], [ 35.936759, -2.037188 ], [ 35.938689, -2.029189 ], [ 35.934276, -2.020363 ], [ 35.927381, -2.01595 ], [ 35.921865, -1.986989 ], [ 35.91028, -1.976508 ], [ 35.9169, -1.974026 ], [ 35.926278, -1.964648 ], [ 35.929312, -1.952236 ], [ 35.927381, -1.947272 ], [ 35.919382, -1.942031 ], [ 35.906695, -1.94341 ], [ 35.903109, -1.95334 ], [ 35.881595, -1.959959 ], [ 35.873872, -1.951409 ], [ 35.885181, -1.937894 ], [ 35.86808, -1.951409 ], [ 35.860082, -1.946168 ], [ 35.862012, -1.933481 ], [ 35.851807, -1.941755 ], [ 35.84105, -1.939273 ], [ 35.837465, -1.926585 ], [ 35.849325, -1.91638 ], [ 35.849325, -1.905072 ], [ 35.850428, -1.898176 ], [ 35.855117, -1.887419 ], [ 35.868356, -1.868388 ], [ 35.875252, -1.86232 ], [ 35.873872, -1.858459 ], [ 35.867529, -1.855976 ], [ 35.860633, -1.855425 ], [ 35.857875, -1.851563 ], [ 35.855944, -1.845771 ], [ 35.855944, -1.839427 ], [ 35.853186, -1.827291 ], [ 35.84436, -1.819844 ], [ 35.850152, -1.809088 ], [ 35.860633, -1.810191 ], [ 35.863391, -1.817638 ], [ 35.862288, -1.833359 ], [ 35.86808, -1.844944 ], [ 35.876079, -1.844392 ], [ 35.884353, -1.83529 ], [ 35.884905, -1.827291 ], [ 35.879665, -1.812949 ], [ 35.88656, -1.803571 ], [ 35.892352, -1.800813 ], [ 35.90173, -1.799986 ], [ 35.907246, -1.806329 ], [ 35.901178, -1.838876 ], [ 35.897317, -1.850184 ], [ 35.886284, -1.860665 ], [ 35.889594, -1.87087 ], [ 35.893731, -1.869491 ], [ 35.902282, -1.862872 ], [ 35.906419, -1.855976 ], [ 35.908625, -1.84715 ], [ 35.913866, -1.832808 ], [ 35.915797, -1.813501 ], [ 35.913314, -1.797503 ], [ 35.908625, -1.791711 ], [ 35.902833, -1.788401 ], [ 35.893042, -1.792676 ], [ 35.886698, -1.778058 ], [ 35.878975, -1.76868 ], [ 35.878148, -1.759578 ], [ 35.884216, -1.753786 ], [ 35.879803, -1.744409 ], [ 35.876493, -1.731721 ], [ 35.877044, -1.727032 ], [ 35.875941, -1.720688 ], [ 35.871252, -1.713517 ], [ 35.867942, -1.695037 ], [ 35.864633, -1.688418 ], [ 35.861874, -1.674903 ], [ 35.871252, -1.67573 ], [ 35.870425, -1.669938 ], [ 35.868218, -1.662767 ], [ 35.867391, -1.645666 ], [ 35.867391, -1.639598 ], [ 35.869873, -1.623049 ], [ 35.874286, -1.61312 ], [ 35.877872, -1.643736 ], [ 35.882561, -1.653389 ], [ 35.894697, -1.690073 ], [ 35.898834, -1.710483 ], [ 35.902419, -1.698347 ], [ 35.902971, -1.676834 ], [ 35.904074, -1.668007 ], [ 35.898282, -1.649252 ], [ 35.904902, -1.645666 ], [ 35.909591, -1.65532 ], [ 35.9129, -1.649252 ], [ 35.9129, -1.634082 ], [ 35.91621, -1.618085 ], [ 35.921727, -1.612293 ], [ 35.929725, -1.609259 ], [ 35.938, -1.60126 ], [ 35.943516, -1.598226 ], [ 35.951239, -1.600984 ], [ 35.9551, -1.609259 ], [ 35.951515, -1.62829 ], [ 35.936897, -1.647045 ], [ 35.941861, -1.656975 ], [ 35.943792, -1.671593 ], [ 35.945447, -1.694762 ], [ 35.956273, -1.706346 ], [ 35.962065, -1.705587 ], [ 35.966823, -1.702898 ], [ 35.973373, -1.702622 ], [ 35.979717, -1.700967 ], [ 35.981992, -1.697727 ], [ 35.984199, -1.69752 ], [ 35.992818, -1.700761 ], [ 35.993853, -1.705863 ], [ 35.996266, -1.707449 ], [ 36.000058, -1.706898 ], [ 36.001231, -1.707449 ], [ 35.998679, -1.713103 ], [ 36.003265, -1.719895 ], [ 35.999128, -1.717758 ], [ 35.996094, -1.714379 ], [ 35.994439, -1.714896 ], [ 35.993784, -1.716241 ], [ 35.995439, -1.72024 ], [ 35.998128, -1.722516 ], [ 36.002368, -1.721516 ], [ 36.006471, -1.721688 ], [ 36.007402, -1.72055 ], [ 36.008436, -1.720723 ], [ 36.009057, -1.723171 ], [ 36.007609, -1.723205 ], [ 36.005954, -1.72486 ], [ 36.003989, -1.729652 ], [ 36.004023, -1.725136 ], [ 36.001575, -1.725446 ], [ 35.998507, -1.729825 ], [ 35.997266, -1.727997 ], [ 35.995852, -1.727722 ], [ 35.995507, -1.728722 ], [ 35.997093, -1.735272 ], [ 36.000162, -1.739444 ], [ 36.002748, -1.739754 ], [ 36.003989, -1.741375 ], [ 36.004299, -1.743857 ], [ 36.006402, -1.743167 ], [ 36.006713, -1.744615 ], [ 36.005196, -1.748822 ], [ 35.999197, -1.752476 ], [ 35.998576, -1.755165 ], [ 35.999265, -1.755786 ], [ 36.004989, -1.753855 ], [ 36.00885, -1.754476 ], [ 36.010712, -1.755579 ], [ 36.010091, -1.756958 ], [ 36.007333, -1.756682 ], [ 36.004713, -1.758958 ], [ 36.001955, -1.758889 ], [ 36.001541, -1.761854 ], [ 36.003472, -1.760682 ], [ 36.007195, -1.760268 ], [ 36.009747, -1.762681 ], [ 36.009057, -1.764957 ], [ 36.005161, -1.762578 ], [ 36.002472, -1.764991 ], [ 36.0013, -1.767336 ], [ 36.002127, -1.769887 ], [ 36.005851, -1.773955 ], [ 36.016056, -1.773404 ], [ 36.019641, -1.775197 ], [ 36.020596, -1.776721 ], [ 36.008609, -1.776507 ], [ 36.00392, -1.777886 ], [ 36.000403, -1.782161 ], [ 35.998955, -1.786574 ], [ 36.000127, -1.788987 ], [ 36.003644, -1.788849 ], [ 36.004816, -1.789884 ], [ 36.008195, -1.794848 ], [ 36.014125, -1.801399 ], [ 36.016856, -1.803241 ], [ 36.016332, -1.80926 ], [ 36.013987, -1.809605 ], [ 36.010333, -1.806915 ], [ 36.005575, -1.806157 ], [ 36.004816, -1.803813 ], [ 36.006333, -1.801744 ], [ 36.003161, -1.794435 ], [ 36.001024, -1.79478 ], [ 35.995783, -1.799468 ], [ 35.983372, -1.807329 ], [ 35.978545, -1.808984 ], [ 35.97358, -1.81188 ], [ 35.975373, -1.8145 ], [ 35.974959, -1.819603 ], [ 35.972753, -1.823189 ], [ 35.971374, -1.83367 ], [ 35.973718, -1.836979 ], [ 35.976614, -1.837807 ], [ 35.979234, -1.834635 ], [ 35.983234, -1.836842 ], [ 35.985578, -1.83036 ], [ 35.988888, -1.828567 ], [ 35.999438, -1.832015 ], [ 35.998197, -1.839048 ], [ 35.999162, -1.840841 ], [ 36.002472, -1.841737 ], [ 36.00392, -1.839738 ], [ 36.005437, -1.840151 ], [ 36.004472, -1.842565 ], [ 36.004954, -1.845185 ], [ 36.008057, -1.845875 ], [ 36.009643, -1.847943 ], [ 36.00523, -1.848357 ], [ 35.996335, -1.846495 ], [ 35.991301, -1.851874 ], [ 35.987716, -1.853735 ], [ 35.982199, -1.855114 ], [ 35.979165, -1.857459 ], [ 35.978476, -1.863113 ], [ 35.974752, -1.858424 ], [ 35.973235, -1.862286 ], [ 35.971994, -1.870836 ], [ 35.975856, -1.885592 ], [ 35.980407, -1.890281 ], [ 35.981372, -1.888074 ], [ 35.976683, -1.878421 ], [ 35.983303, -1.875663 ], [ 35.990888, -1.881869 ], [ 35.994887, -1.890695 ], [ 35.999024, -1.891798 ], [ 35.998197, -1.886971 ], [ 36.000955, -1.885592 ], [ 36.001782, -1.882834 ], [ 36.001231, -1.880352 ], [ 36.000403, -1.879386 ], [ 35.99861, -1.880489 ], [ 35.99668, -1.883937 ], [ 35.991991, -1.878973 ], [ 35.992818, -1.875111 ], [ 35.99599, -1.873732 ], [ 35.998059, -1.870974 ], [ 36.000265, -1.869871 ], [ 35.999438, -1.875663 ], [ 36.001506, -1.877731 ], [ 36.00592, -1.87387 ], [ 36.008678, -1.87387 ], [ 36.009919, -1.878835 ], [ 36.007437, -1.881317 ], [ 36.003437, -1.887661 ], [ 35.999438, -1.908899 ], [ 35.994887, -1.905175 ], [ 35.989233, -1.904072 ], [ 35.993784, -1.909312 ], [ 36.003299, -1.916484 ], [ 35.998335, -1.919104 ], [ 35.9993, -1.923241 ], [ 35.997645, -1.933584 ], [ 35.991577, -1.938135 ], [ 35.977855, -1.939549 ], [ 35.971925, -1.943686 ], [ 35.976752, -1.962166 ], [ 35.972615, -1.969475 ], [ 35.973649, -1.98954 ], [ 35.964202, -2.000918 ], [ 35.962754, -2.000918 ] ] ] } },
{ "type": "Feature", "properties": { "name": "Forest cover", "type": "land-cover", "area_ha": 5068.5 }, "geometry": { "type": "Polygon", "coordinates": [ [ [ 36.125183, -0.893912 ], [ 36.129984, -0.898599 ], [ 36.130512, -0.900544 ], [ 36.135499, -0.901827 ], [ 36.136753, -0.903689 ], [ 36.13962, -0.905372 ], [ 36.140025, -0.906976 ], [ 36.142525, -0.9072 ], [ 36.142812, -0.90535 ], [ 36.142009, -0.903252 ], [ 36.144312, -0.90067 ], [ 36.149094, -0.900951 ], [ 36.14514, -0.915556 ], [ 36.147221, -0.922393 ], [ 36.142464, -0.937256 ], [ 36.144545, -0.949147 ], [ 36.146626, -0.95539 ], [ 36.152869, -0.952417 ], [ 36.156436, -0.959551 ], [ 36.150788, -0.972334 ], [ 36.144545, -0.975901 ], [ 36.134141, -0.97709 ], [ 36.133546, -0.998494 ], [ 36.130871, -1.008006 ], [ 36.127898, -1.001466 ], [ 36.127601, -0.988089 ], [ 36.126709, -0.981549 ], [ 36.127304, -0.97382 ], [ 36.131763, -0.96847 ], [ 36.134141, -0.959254 ], [ 36.113332, -0.975307 ], [ 36.097874, -0.988684 ], [ 36.091631, -0.988387 ], [ 36.093712, -0.979171 ], [ 36.106495, -0.959551 ], [ 36.113926, -0.946174 ], [ 36.102333, -0.948255 ], [ 36.091631, -0.974712 ], [ 36.081821, -0.987495 ], [ 36.077957, -0.98363 ], [ 36.092523, -0.952417 ], [ 36.099063, -0.941715 ], [ 36.108576, -0.933095 ], [ 36.109467, -0.920312 ], [ 36.108278, -0.913772 ], [ 36.106495, -0.911097 ], [ 36.102333, -0.921501 ], [ 36.091037, -0.926852 ], [ 36.081227, -0.929825 ], [ 36.068147, -0.944688 ], [ 36.063094, -0.951525 ], [ 36.06131, -0.943202 ], [ 36.069931, -0.936067 ], [ 36.079146, -0.926555 ], [ 36.087767, -0.920609 ], [ 36.107387, -0.899503 ], [ 36.117196, -0.901287 ], [ 36.125183, -0.893912 ] ] ] } },
{ "type": "Feature", "properties": { "name": "Forest cover", "type": "land-cover", "area_ha": 14279.8 }, "geometry": { "type": "Polygon", "coordinates": [ [ [ 35.905838, -0.873343 ], [ 35.901082, -0.865614 ], [ 35.900487, -0.831726 ], [ 35.902271, -0.811512 ], [ 35.908811, -0.806161 ], [ 35.921296, -0.808539 ], [ 35.927836, -0.803783 ], [ 35.943294, -0.803188 ], [ 35.957563, -0.796648 ], [ 35.967076, -0.78119 ], [ 35.969454, -0.773461 ], [ 35.976588, -0.78119 ], [ 35.969454, -0.79427 ], [ 35.970048, -0.799026 ], [ 35.976886, -0.799621 ], [ 35.985209, -0.794567 ], [ 35.990857, -0.78773 ], [ 35.994722, -0.785946 ], [ 36.005126, -0.787136 ], [ 36.006612, -0.789514 ], [ 35.997397, -0.799026 ], [ 35.994424, -0.807053 ], [ 35.984615, -0.81389 ], [ 35.977777, -0.820727 ], [ 35.965589, -0.826375 ], [ 35.965292, -0.832618 ], [ 35.975399, -0.827861 ], [ 35.979264, -0.831429 ], [ 35.987587, -0.821619 ], [ 35.997397, -0.811809 ], [ 36.002153, -0.811809 ], [ 35.997397, -0.817457 ], [ 35.988182, -0.825186 ], [ 35.98729, -0.831131 ], [ 35.971237, -0.85521 ], [ 35.961428, -0.867101 ], [ 35.955482, -0.877803 ], [ 35.959644, -0.882262 ], [ 35.964103, -0.87156 ], [ 35.971832, -0.860858 ], [ 35.984912, -0.848967 ], [ 35.990263, -0.841238 ], [ 35.992938, -0.8454 ], [ 35.975399, -0.868587 ], [ 35.973021, -0.87483 ], [ 35.972129, -0.883153 ], [ 35.968859, -0.89326 ], [ 35.957563, -0.917934 ], [ 35.941511, -0.967875 ], [ 35.932295, -0.982738 ], [ 35.935565, -0.995818 ], [ 35.933187, -0.998196 ], [ 35.917135, -0.97709 ], [ 35.91327, -0.965497 ], [ 35.914459, -0.954498 ], [ 35.908811, -0.944391 ], [ 35.905838, -0.943499 ], [ 35.89692, -0.926852 ], [ 35.899298, -0.888801 ], [ 35.905838, -0.873343 ] ] ] } },
{ "type": "Feature", "properties": { "name": "Forest cover", "type": "land-cover", "area_ha": 105561.3 }, "geometry": { "type": "Polygon", "coordinates": [ [ [ 35.397941, -0.645225 ], [ 35.568186, -0.595766 ], [ 35.572478, -0.602822 ], [ 35.577754, -0.606457 ], [ 35.580803, -0.610091 ], [ 35.582093, -0.610209 ], [ 35.590898, -0.605523 ], [ 35.599205, -0.655566 ], [ 35.600161, -0.657503 ], [ 35.610757, -0.672367 ], [ 35.62938, -0.684618 ], [ 35.637438, -0.693614 ], [ 35.64306, -0.702185 ], [ 35.64461, -0.701734 ], [ 35.645861, -0.702742 ], [ 35.647094, -0.702096 ], [ 35.64741, -0.698653 ], [ 35.648513, -0.697989 ], [ 35.648754, -0.696634 ], [ 35.651133, -0.695846 ], [ 35.652294, -0.688639 ], [ 35.6545, -0.685238 ], [ 35.656937, -0.684499 ], [ 35.660451, -0.681884 ], [ 35.664194, -0.680923 ], [ 35.665747, -0.678564 ], [ 35.672445, -0.676291 ], [ 35.678911, -0.668711 ], [ 35.681809, -0.664029 ], [ 35.689612, -0.643072 ], [ 35.700314, -0.626573 ], [ 35.705665, -0.619885 ], [ 35.712354, -0.619439 ], [ 35.726622, -0.616317 ], [ 35.734649, -0.609183 ], [ 35.744459, -0.605616 ], [ 35.745796, -0.614088 ], [ 35.73554, -0.627911 ], [ 35.743567, -0.636383 ], [ 35.74758, -0.638167 ], [ 35.758727, -0.634154 ], [ 35.766308, -0.635045 ], [ 35.770767, -0.638167 ], [ 35.773888, -0.631032 ], [ 35.774334, -0.618101 ], [ 35.785036, -0.610075 ], [ 35.788603, -0.603832 ], [ 35.797967, -0.594914 ], [ 35.802872, -0.59536 ], [ 35.797967, -0.601603 ], [ 35.7944, -0.614534 ], [ 35.794846, -0.620331 ], [ 35.791724, -0.636829 ], [ 35.793954, -0.654665 ], [ 35.805101, -0.65957 ], [ 35.799305, -0.674731 ], [ 35.810452, -0.673839 ], [ 35.81179, -0.663583 ], [ 35.817141, -0.65957 ], [ 35.824275, -0.660016 ], [ 35.829626, -0.663137 ], [ 35.832301, -0.67696 ], [ 35.837206, -0.688554 ], [ 35.843895, -0.674285 ], [ 35.848354, -0.670272 ], [ 35.851921, -0.67696 ], [ 35.847462, -0.688108 ], [ 35.847908, -0.697026 ], [ 35.863515, -0.690783 ], [ 35.865744, -0.71397 ], [ 35.867974, -0.701485 ], [ 35.872433, -0.693905 ], [ 35.880013, -0.693013 ], [ 35.895174, -0.701931 ], [ 35.897403, -0.722442 ], [ 35.892498, -0.730915 ], [ 35.878007, -0.742508 ], [ 35.876446, -0.751872 ], [ 35.881351, -0.759006 ], [ 35.879121, -0.774613 ], [ 35.871541, -0.80761 ], [ 35.869757, -0.819649 ], [ 35.869534, -0.839938 ], [ 35.876, -0.85443 ], [ 35.874662, -0.867138 ], [ 35.867305, -0.889433 ], [ 35.869088, -0.891663 ], [ 35.873102, -0.901918 ], [ 35.877115, -0.915296 ], [ 35.886033, -0.958994 ], [ 35.882911, -0.964791 ], [ 35.876223, -0.971033 ], [ 35.873102, -0.964791 ], [ 35.877561, -0.960332 ], [ 35.874885, -0.943833 ], [ 35.873548, -0.928227 ], [ 35.870426, -0.917079 ], [ 35.866413, -0.906823 ], [ 35.859279, -0.897905 ], [ 35.856157, -0.902364 ], [ 35.84278, -0.946063 ], [ 35.823606, -1.00403 ], [ 35.8216, -0.978614 ], [ 35.820262, -0.972148 ], [ 35.815803, -0.960555 ], [ 35.810006, -0.950745 ], [ 35.812459, -0.944279 ], [ 35.806662, -0.936476 ], [ 35.794623, -0.916187 ], [ 35.794846, -0.908607 ], [ 35.79139, -0.900915 ], [ 35.788603, -0.901138 ], [ 35.784367, -0.902922 ], [ 35.779796, -0.903145 ], [ 35.771882, -0.901807 ], [ 35.76118, -0.895787 ], [ 35.741694, -0.898724 ], [ 35.741714, -0.899522 ], [ 35.740328, -0.895922 ], [ 35.742108, -0.893343 ], [ 35.742749, -0.890549 ], [ 35.740612, -0.883864 ], [ 35.738596, -0.880188 ], [ 35.737824, -0.875828 ], [ 35.738444, -0.874399 ], [ 35.737935, -0.868991 ], [ 35.736408, -0.865624 ], [ 35.73897, -0.859046 ], [ 35.740086, -0.857265 ], [ 35.741335, -0.856866 ], [ 35.741238, -0.850179 ], [ 35.742813, -0.842533 ], [ 35.741923, -0.839701 ], [ 35.742298, -0.827092 ], [ 35.74333, -0.823597 ], [ 35.747902, -0.815176 ], [ 35.748552, -0.811221 ], [ 35.750307, -0.808634 ], [ 35.750999, -0.805378 ], [ 35.749802, -0.800826 ], [ 35.747143, -0.796443 ], [ 35.746356, -0.789978 ], [ 35.742288, -0.78102 ], [ 35.741001, -0.773289 ], [ 35.73917, -0.768234 ], [ 35.737013, -0.76547 ], [ 35.735298, -0.758879 ], [ 35.735133, -0.754352 ], [ 35.733349, -0.752906 ], [ 35.732579, -0.751068 ], [ 35.732836, -0.74869 ], [ 35.74078, -0.741728 ], [ 35.741449, -0.727905 ], [ 35.726065, -0.733033 ], [ 35.717516, -0.741003 ], [ 35.700186, -0.740672 ], [ 35.688784, -0.740297 ], [ 35.696858, -0.731026 ], [ 35.699311, -0.722777 ], [ 35.697527, -0.719433 ], [ 35.691285, -0.718764 ], [ 35.685265, -0.719656 ], [ 35.683258, -0.723 ], [ 35.67657, -0.728351 ], [ 35.671219, -0.723669 ], [ 35.622785, -0.72168 ], [ 35.621419, -0.721107 ], [ 35.612768, -0.721692 ], [ 35.612289, -0.723281 ], [ 35.61045, -0.723049 ], [ 35.607145, -0.725314 ], [ 35.606208, -0.728043 ], [ 35.60725, -0.729408 ], [ 35.609405, -0.728857 ], [ 35.609482, -0.732264 ], [ 35.607414, -0.734076 ], [ 35.607262, -0.735277 ], [ 35.605789, -0.735207 ], [ 35.605328, -0.739107 ], [ 35.610223, -0.739094 ], [ 35.62581, -0.753676 ], [ 35.627189, -0.759468 ], [ 35.625258, -0.767191 ], [ 35.61919, -0.776845 ], [ 35.616156, -0.78705 ], [ 35.615881, -0.806633 ], [ 35.616708, -0.816562 ], [ 35.620845, -0.825112 ], [ 35.631878, -0.814631 ], [ 35.645117, -0.809391 ], [ 35.663597, -0.799462 ], [ 35.682352, -0.78043 ], [ 35.687317, -0.77188 ], [ 35.694488, -0.755055 ], [ 35.698901, -0.753124 ], [ 35.71545, -0.749263 ], [ 35.718209, -0.750642 ], [ 35.721518, -0.756158 ], [ 35.728138, -0.770501 ], [ 35.729793, -0.778775 ], [ 35.727862, -0.791187 ], [ 35.727862, -0.798358 ], [ 35.730069, -0.809943 ], [ 35.73393, -0.806081 ], [ 35.739171, -0.810494 ], [ 35.738067, -0.820148 ], [ 35.732551, -0.827043 ], [ 35.719036, -0.840558 ], [ 35.710762, -0.846626 ], [ 35.704694, -0.84966 ], [ 35.697798, -0.84966 ], [ 35.692006, -0.851867 ], [ 35.682628, -0.858486 ], [ 35.682077, -0.852142 ], [ 35.678215, -0.844144 ], [ 35.672699, -0.841386 ], [ 35.668837, -0.842489 ], [ 35.65615, -0.855452 ], [ 35.645393, -0.860417 ], [ 35.63436, -0.862899 ], [ 35.619742, -0.863727 ], [ 35.612847, -0.866209 ], [ 35.606779, -0.869519 ], [ 35.599608, -0.865933 ], [ 35.587472, -0.85821 ], [ 35.578094, -0.856556 ], [ 35.572853, -0.851591 ], [ 35.571474, -0.841937 ], [ 35.575887, -0.832008 ], [ 35.59023, -0.823182 ], [ 35.588851, -0.816286 ], [ 35.5803, -0.79036 ], [ 35.568716, -0.789532 ], [ 35.562648, -0.779465 ], [ 35.547516, -0.78936 ], [ 35.545219, -0.785127 ], [ 35.534262, -0.778328 ], [ 35.524757, -0.777804 ], [ 35.517646, -0.775639 ], [ 35.508552, -0.775001 ], [ 35.503789, -0.773133 ], [ 35.499185, -0.770136 ], [ 35.488792, -0.767538 ], [ 35.480769, -0.764073 ], [ 35.428279, -0.722848 ], [ 35.426512, -0.721355 ], [ 35.397941, -0.645225 ] ] ] } }
]
}
