{
"type": "FeatureCollection",
"name": "mara_reserve",
"crs": { "type": "name", "properties": { "name": "urn:ogc:def:crs:OGC:1.3:CRS84" } },
"xy_coordinate_resolution": 1e-06,
"features": [
{ "type": "Feature", "properties": { "name": "Maasai Mara National Reserve", "type": "reserve", "area_ha": 151104.6 }, "geometry": { "type": "Polygon", "coordinates": [ [ [ 35.327245, -1.722923, 0.0 ], [ 34.786086, -1.416036, 0.0 ], [ 34.789791, -1.40889, 0.0 ], [ 34.791732, -1.407126, 0.0 ], [ 34.794026, -1.40642, 0.0 ], [ 34.796232, -1.40245, 0.0 ], [ 34.798261, -1.40095, 0.0 ], [ 34.799496, -1.401039, 0.0 ], [ 34.802408, -1.397598, 0.0 ], [ 34.805584, -1.397157, 0.0 ], [ 34.809554, -1.392129, 0.0 ], [ 34.813172, -1.390453, 0.0 ], [ 34.817759, -1.384454, 0.0 ], [ 34.824376, -1.381984, 0.0 ], [ 34.827111, -1.378631, 0.0 ], [ 34.834611, -1.377573, 0.0 ], [ 34.835934, -1.376602, 0.0 ], [ 34.839728, -1.370956, 0.0 ], [ 34.840169, -1.367869, 0.0 ], [ 34.841581, -1.366987, 0.0 ], [ 34.84361, -1.367957, 0.0 ], [ 34.846433, -1.367692, 0.0 ], [ 34.850139, -1.364428, 0.0 ], [ 34.866814, -1.356577, 0.0 ], [ 34.869108, -1.356577, 0.0 ], [ 34.871049, -1.357724, 0.0 ], [ 34.874842, -1.353137, 0.0 ], [ 34.878901, -1.35146, 0.0 ], [ 34.882871, -1.347579, 0.0 ], [ 34.887371, -1.346873, 0.0 ], [ 34.893017, -1.342021, 0.0 ], [ 34.899017, -1.339816, 0.0 ], [ 34.903163, -1.335846, 0.0 ], [ 34.915078, -1.330466, 0.0 ], [ 34.91947, -1.327265, 0.0 ], [ 34.923155, -1.326595, 0.0 ], [ 34.929036, -1.32239, 0.0 ], [ 34.934172, -1.316249, 0.0 ], [ 34.938081, -1.316175, 0.0 ], [ 34.951033, -1.307615, 0.0 ], [ 34.951778, -1.305233, 0.0 ], [ 34.953676, -1.302851, 0.0 ], [ 34.957882, -1.299092, 0.0 ], [ 34.958627, -1.295147, 0.0 ], [ 34.965475, -1.284317, 0.0 ], [ 34.965343, -1.277722, 0.0 ], [ 34.965976, -1.27627, 0.0 ], [ 34.96739, -1.275637, 0.0 ], [ 34.968618, -1.276456, 0.0 ], [ 34.968358, -1.280438, 0.0 ], [ 34.96966, -1.280922, 0.0 ], [ 34.973196, -1.274782, 0.0 ], [ 34.972117, -1.273814, 0.0 ], [ 34.970182, -1.274447, 0.0 ], [ 34.968246, -1.273963, 0.0 ], [ 34.966981, -1.270129, 0.0 ], [ 34.969921, -1.267264, 0.0 ], [ 34.97275, -1.267413, 0.0 ], [ 34.973941, -1.261383, 0.0 ], [ 34.976174, -1.257029, 0.0 ], [ 34.977812, -1.255689, 0.0 ], [ 34.979263, -1.255615, 0.0 ], [ 34.982837, -1.257848, 0.0 ], [ 34.985033, -1.254312, 0.0 ], [ 34.986761, -1.253988, 0.0 ], [ 35.033658, -1.25289, 0.0 ], [ 35.03507, -1.252577, 0.0 ], [ 35.03565, -1.251433, 0.0 ], [ 35.034608, -1.248655, 0.0 ], [ 35.034707, -1.246322, 0.0 ], [ 35.036246, -1.244883, 0.0 ], [ 35.037189, -1.244983, 0.0 ], [ 35.038628, -1.246322, 0.0 ], [ 35.038429, -1.247861, 0.0 ], [ 35.041903, -1.249449, 0.0 ], [ 35.049397, -1.255056, 0.0 ], [ 35.204782, -1.378417, 0.0 ], [ 35.205675, -1.381146, 0.0 ], [ 35.205129, -1.388589, 0.0 ], [ 35.200018, -1.394842, 0.0 ], [ 35.199124, -1.396976, 0.0 ], [ 35.200216, -1.402087, 0.0 ], [ 35.199075, -1.405064, 0.0 ], [ 35.199124, -1.410572, 0.0 ], [ 35.197189, -1.414443, 0.0 ], [ 35.197983, -1.418313, 0.0 ], [ 35.196891, -1.419752, 0.0 ], [ 35.191581, -1.421787, 0.0 ], [ 35.181209, -1.424714, 0.0 ], [ 35.180663, -1.428387, 0.0 ], [ 35.182152, -1.429081, 0.0 ], [ 35.186122, -1.428387, 0.0 ], [ 35.186767, -1.429429, 0.0 ], [ 35.185824, -1.430719, 0.0 ], [ 35.186419, -1.431165, 0.0 ], [ 35.189918, -1.431121, 0.0 ], [ 35.190624, -1.432445, 0.0 ], [ 35.190536, -1.435444, 0.0 ], [ 35.192477, -1.434826, 0.0 ], [ 35.195653, -1.436238, 0.0 ], [ 35.200946, -1.433944, 0.0 ], [ 35.203333, -1.435153, 0.0 ], [ 35.20363, -1.4372, 0.0 ], [ 35.207427, -1.43586, 0.0 ], [ 35.208916, -1.436307, 0.0 ], [ 35.209511, -1.44416, 0.0 ], [ 35.211186, -1.444904, 0.0 ], [ 35.213606, -1.443936, 0.0 ], [ 35.212936, -1.448812, 0.0 ], [ 35.213941, -1.449184, 0.0 ], [ 35.21569, -1.448179, 0.0 ], [ 35.21636, -1.448998, 0.0 ], [ 35.216397, -1.450151, 0.0 ], [ 35.21435, -1.451677, 0.0 ], [ 35.215541, -1.453687, 0.0 ], [ 35.214387, -1.45566, 0.0 ], [ 35.216323, -1.456143, 0.0 ], [ 35.216993, -1.459046, 0.0 ], [ 35.220045, -1.458897, 0.0 ], [ 35.222353, -1.459902, 0.0 ], [ 35.224437, -1.459493, 0.0 ], [ 35.226633, -1.460312, 0.0 ], [ 35.227861, -1.462024, 0.0 ], [ 35.229946, -1.459939, 0.0 ], [ 35.231211, -1.459791, 0.0 ], [ 35.232774, -1.461949, 0.0 ], [ 35.234859, -1.460312, 0.0 ], [ 35.235194, -1.462321, 0.0 ], [ 35.23631, -1.463103, 0.0 ], [ 35.237501, -1.459828, 0.0 ], [ 35.238916, -1.460274, 0.0 ], [ 35.242229, -1.458414, 0.0 ], [ 35.246025, -1.462731, 0.0 ], [ 35.246621, -1.45927, 0.0 ], [ 35.251675, -1.46117, 0.0 ], [ 35.254157, -1.460078, 0.0 ], [ 35.256688, -1.461071, 0.0 ], [ 35.258127, -1.460574, 0.0 ], [ 35.260112, -1.463254, 0.0 ], [ 35.26309, -1.464048, 0.0 ], [ 35.264082, -1.465983, 0.0 ], [ 35.267209, -1.46246, 0.0 ], [ 35.269194, -1.463254, 0.0 ], [ 35.271924, -1.462659, 0.0 ], [ 35.274008, -1.466082, 0.0 ], [ 35.277978, -1.466082, 0.0 ], [ 35.283586, -1.462807, 0.0 ], [ 35.284281, -1.463204, 0.0 ], [ 35.321372, -1.504952, 0.0 ], [ 35.321581, -1.506624, 0.0 ], [ 35.329581, -1.51344, 0.0 ], [ 35.382286, -1.57259, 0.0 ], [ 35.384916, -1.573731, 0.0 ], [ 35.385661, -1.582167, 0.0 ], [ 35.386554, -1.584003, 0.0 ], [ 35.385909, -1.594672, 0.0 ], [ 35.38437, -1.599684, 0.0 ], [ 35.386901, -1.606879, 0.0 ], [ 35.386951, -1.618788, 0.0 ], [ 35.37919, -1.62551, 0.0 ], [ 35.375547, -1.626473, 0.0 ], [ 35.373767, -1.628106, 0.0 ], [ 35.372825, -1.63089, 0.0 ], [ 35.367507, -1.637066, 0.0 ], [ 35.363864, -1.642844, 0.0 ], [ 35.36355, -1.649564, 0.0 ], [ 35.359907, -1.656995, 0.0 ], [ 35.355154, -1.662271, 0.0 ], [ 35.354086, -1.665741, 0.0 ], [ 35.35283, -1.666327, 0.0 ], [ 35.348168, -1.665769, 0.0 ], [ 35.347554, -1.669202, 0.0 ], [ 35.346577, -1.670235, 0.0 ], [ 35.340351, -1.665462, 0.0 ], [ 35.337727, -1.665378, 0.0 ], [ 35.333484, -1.6675, 0.0 ], [ 35.330358, -1.667891, 0.0 ], [ 35.327733, -1.675008, 0.0 ], [ 35.328906, -1.677409, 0.0 ], [ 35.32885, -1.679502, 0.0 ], [ 35.323267, -1.685866, 0.0 ], [ 35.321815, -1.689467, 0.0 ], [ 35.321369, -1.694435, 0.0 ], [ 35.32162, -1.696026, 0.0 ], [ 35.328731, -1.708147, 0.0 ], [ 35.326617, -1.714633, 0.0 ], [ 35.326533, -1.716559, 0.0 ], [ 35.328815, -1.71972, 0.0 ], [ 35.327245, -1.722923, 0.0 ] ] ] } }
]
}
