{
"type": "FeatureCollection",
"name": "mara_conservancies",
"crs": { "type": "name", "properties": { "name": "urn:ogc:def:crs:OGC:1.3:CRS84" } },
"xy_coordinate_resolution": 1e-06,
"features": [
{ "type": "Feature", "properties": { "name": "Ol Kinyei Conservancy", "type": "conservancy", "area_ha": 6622.6 }, "geometry": { "type": "Polygon", "coordinates": [ [ [ 35.469512, -1.333163, -14.777714 ], [ 35.472071, -1.332929, -14.774968 ], [ 35.474013, -1.336045, -14.756277 ], [ 35.478949, -1.336235, -14.747744 ], [ 35.482775, -1.340827, -14.718723 ], [ 35.483585, -1.350154, -14.670482 ], [ 35.485037, -1.353709, -14.650339 ], [ 35.484922, -1.357317, -14.63234 ], [ 35.487325, -1.361759, -14.606276 ], [ 35.486868, -1.36492, -14.59106 ], [ 35.483423, -1.367379, -14.583966 ], [ 35.479033, -1.367631, -14.589436 ], [ 35.473771, -1.369622, -14.58749 ], [ 35.472561, -1.37065, -14.584169 ], [ 35.471794, -1.373541, -14.57079 ], [ 35.470081, -1.372371, -14.579313 ], [ 35.468881, -1.373084, -14.577559 ], [ 35.468924, -1.374027, -14.57275 ], [ 35.465255, -1.375397, -14.57148 ], [ 35.464698, -1.376582, -14.56637 ], [ 35.462328, -1.377339, -14.566197 ], [ 35.461415, -1.376382, -14.572414 ], [ 35.459316, -1.376939, -14.572831 ], [ 35.458488, -1.375183, -14.582942 ], [ 35.456874, -1.375112, -14.585776 ], [ 35.455498, -1.375301, -14.586938 ], [ 35.45546, -1.376462, -14.581151 ], [ 35.453442, -1.378156, -14.575718 ], [ 35.449749, -1.377661, -14.583874 ], [ 35.448074, -1.38084, -14.570442 ], [ 35.449254, -1.382134, -14.562117 ], [ 35.449121, -1.383143, -14.557244 ], [ 35.446722, -1.383924, -14.556995 ], [ 35.447293, -1.384971, -14.55085 ], [ 35.447065, -1.385884, -14.546602 ], [ 35.445808, -1.386246, -14.546709 ], [ 35.446646, -1.387122, -14.541017 ], [ 35.446208, -1.387579, -14.53939 ], [ 35.444057, -1.389083, -14.535122 ], [ 35.442934, -1.38893, -14.53761 ], [ 35.442517, -1.39189, -14.523357 ], [ 35.441164, -1.39214, -14.524175 ], [ 35.441721, -1.393939, -14.51427 ], [ 35.440336, -1.396409, -14.503969 ], [ 35.439251, -1.396637, -14.504483 ], [ 35.440578, -1.397622, -14.497492 ], [ 35.440222, -1.399179, -14.490212 ], [ 35.437409, -1.400164, -14.489569 ], [ 35.438194, -1.403048, -14.47386 ], [ 35.436624, -1.403619, -14.473396 ], [ 35.438178, -1.404421, -14.466981 ], [ 35.436636, -1.40522, -14.465325 ], [ 35.437588, -1.407866, -14.450559 ], [ 35.436217, -1.407028, -14.456873 ], [ 35.434999, -1.408266, -14.452519 ], [ 35.436065, -1.409484, -14.444758 ], [ 35.437683, -1.409275, -14.44333 ], [ 35.43774, -1.409884, -14.44018 ], [ 35.435456, -1.410988, -14.438131 ], [ 35.43517, -1.413253, -14.42718 ], [ 35.434466, -1.412739, -14.430843 ], [ 35.433571, -1.413919, -14.426282 ], [ 35.428907, -1.415404, -14.425967 ], [ 35.428317, -1.417803, -14.414814 ], [ 35.427803, -1.416927, -14.420004 ], [ 35.424643, -1.418831, -14.415279 ], [ 35.423711, -1.420525, -14.408193 ], [ 35.424472, -1.422295, -14.398128 ], [ 35.42154, -1.424713, -14.390471 ], [ 35.421674, -1.426121, -14.383187 ], [ 35.420227, -1.426502, -14.383492 ], [ 35.418419, -1.4293, -14.372202 ], [ 35.416496, -1.429338, -14.374957 ], [ 35.415982, -1.431356, -14.365606 ], [ 35.414059, -1.431661, -14.367022 ], [ 35.414174, -1.432517, -14.362543 ], [ 35.411889, -1.434706, -14.355045 ], [ 35.411528, -1.436991, -14.344123 ], [ 35.409967, -1.437409, -14.344411 ], [ 35.409624, -1.438533, -14.339295 ], [ 35.407797, -1.438038, -14.344581 ], [ 35.406464, -1.438818, -14.342702 ], [ 35.406407, -1.440227, -14.335713 ], [ 35.407759, -1.441464, -14.327428 ], [ 35.405493, -1.443406, -14.321146 ], [ 35.402524, -1.443425, -14.3256 ], [ 35.397042, -1.439998, -14.351207 ], [ 35.39569, -1.438152, -14.362552 ], [ 35.392644, -1.437467, -14.370659 ], [ 35.389884, -1.438038, -14.372018 ], [ 35.38739, -1.435906, -14.386546 ], [ 35.387124, -1.435297, -14.390015 ], [ 35.388151, -1.434626, -14.391813 ], [ 35.387166, -1.433955, -14.396692 ], [ 35.388608, -1.433384, -14.397354 ], [ 35.389122, -1.434369, -14.391617 ], [ 35.390606, -1.432898, -14.396732 ], [ 35.39102, -1.433883, -14.391148 ], [ 35.392862, -1.432527, -14.395142 ], [ 35.394832, -1.43257, -14.391909 ], [ 35.395104, -1.432099, -14.393861 ], [ 35.394133, -1.432099, -14.395348 ], [ 35.394804, -1.431099, -14.399342 ], [ 35.395889, -1.432056, -14.392874 ], [ 35.395375, -1.430757, -14.400189 ], [ 35.396303, -1.430414, -14.400489 ], [ 35.39606, -1.428915, -14.408393 ], [ 35.398344, -1.427459, -14.412212 ], [ 35.397802, -1.422248, -14.439232 ], [ 35.398815, -1.420863, -14.44464 ], [ 35.396174, -1.41678, -14.46921 ], [ 35.397673, -1.415552, -14.473086 ], [ 35.3977, -1.414466, -14.478502 ], [ 35.396089, -1.413896, -14.483839 ], [ 35.397473, -1.411811, -14.492198 ], [ 35.394133, -1.411454, -14.499109 ], [ 35.392134, -1.40503, -14.534476 ], [ 35.393233, -1.404359, -14.536167 ], [ 35.393262, -1.398634, -14.564918 ], [ 35.392319, -1.396378, -14.577708 ], [ 35.394175, -1.394451, -14.584561 ], [ 35.394647, -1.391995, -14.596194 ], [ 35.39389, -1.390025, -14.607266 ], [ 35.394361, -1.38844, -14.614518 ], [ 35.392562, -1.388826, -14.615334 ], [ 35.392519, -1.38804, -14.61935 ], [ 35.393861, -1.386984, -14.622611 ], [ 35.394575, -1.381659, -14.648318 ], [ 35.396431, -1.379703, -14.65532 ], [ 35.395917, -1.377847, -14.665449 ], [ 35.398273, -1.37719, -14.665147 ], [ 35.397259, -1.376148, -14.671946 ], [ 35.398501, -1.375691, -14.672343 ], [ 35.398516, -1.374949, -14.676059 ], [ 35.398801, -1.376148, -14.669584 ], [ 35.400486, -1.376305, -14.666213 ], [ 35.4005, -1.37345, -14.680566 ], [ 35.401257, -1.372536, -14.684007 ], [ 35.400015, -1.371508, -14.691085 ], [ 35.4001, -1.370551, -14.69577 ], [ 35.39893, -1.370894, -14.695838 ], [ 35.399715, -1.36891, -14.704627 ], [ 35.401271, -1.368453, -14.704544 ], [ 35.399515, -1.368267, -14.708168 ], [ 35.399358, -1.367211, -14.713729 ], [ 35.400728, -1.366354, -14.715943 ], [ 35.399087, -1.365612, -14.722196 ], [ 35.401636, -1.364448, -14.72415 ], [ 35.407351, -1.366762, -14.703745 ], [ 35.414127, -1.366245, -14.695965 ], [ 35.416402, -1.36841, -14.681575 ], [ 35.418945, -1.368975, -14.674831 ], [ 35.420026, -1.370434, -14.665831 ], [ 35.42187, -1.370601, -14.662163 ], [ 35.42395, -1.369716, -14.66343 ], [ 35.424778, -1.366217, -14.679782 ], [ 35.427344, -1.363076, -14.691664 ], [ 35.430145, -1.361378, -14.695923 ], [ 35.433196, -1.361208, -14.692103 ], [ 35.433193, -1.358752, -14.704476 ], [ 35.431087, -1.356901, -14.71703 ], [ 35.433634, -1.354557, -14.724933 ], [ 35.433883, -1.352887, -14.732963 ], [ 35.431591, -1.350506, -14.748475 ], [ 35.4305, -1.346231, -14.771689 ], [ 35.432224, -1.341882, -14.790963 ], [ 35.432412, -1.335636, -14.822157 ], [ 35.434135, -1.332656, -14.834536 ], [ 35.434186, -1.330341, -14.846129 ], [ 35.435923, -1.328617, -14.852159 ], [ 35.436269, -1.325118, -14.869275 ], [ 35.439753, -1.323798, -14.870586 ], [ 35.440407, -1.320425, -14.886597 ], [ 35.443139, -1.318133, -14.893969 ], [ 35.445414, -1.313241, -14.915159 ], [ 35.44821, -1.314248, -14.905787 ], [ 35.44939, -1.317167, -14.889254 ], [ 35.450481, -1.317879, -14.883991 ], [ 35.457764, -1.316265, -14.880955 ], [ 35.45913, -1.316655, -14.876896 ], [ 35.460554, -1.31834, -14.866207 ], [ 35.465096, -1.316461, -14.86872 ], [ 35.468356, -1.317655, -14.857695 ], [ 35.469924, -1.319912, -14.843901 ], [ 35.470232, -1.323554, -14.825059 ], [ 35.469428, -1.32656, -14.811135 ], [ 35.467249, -1.328863, -14.802867 ], [ 35.466835, -1.330444, -14.795533 ], [ 35.468244, -1.330984, -14.790648 ], [ 35.469512, -1.333163, -14.777714 ] ] ] } },
{ "type": "Feature", "properties": { "name": "Naboisho Conservancy", "type": "conservancy", "area_ha": 20967.7 }, "geometry": { "type": "Polygon", "coordinates": [ [ [ 35.397114, -1.298813, -15.061996 ], [ 35.407865, -1.307578, -15.001288 ], [ 35.40915, -1.309477, -14.989738 ], [ 35.412976, -1.310919, -14.9766 ], [ 35.414032, -1.312647, -14.966265 ], [ 35.418258, -1.312018, -14.962958 ], [ 35.420801, -1.314986, -14.944089 ], [ 35.421587, -1.315015, -14.942741 ], [ 35.42043, -1.317113, -14.933927 ], [ 35.421273, -1.318998, -14.92313 ], [ 35.420644, -1.320269, -14.917684 ], [ 35.419445, -1.320654, -14.917578 ], [ 35.419388, -1.323281, -14.904416 ], [ 35.417818, -1.326193, -14.892136 ], [ 35.420702, -1.329206, -14.872527 ], [ 35.420059, -1.33099, -14.864513 ], [ 35.42093, -1.332646, -14.854829 ], [ 35.419202, -1.333689, -14.852222 ], [ 35.420702, -1.337072, -14.832868 ], [ 35.413806, -1.339299, -14.832209 ], [ 35.410993, -1.342897, -14.818386 ], [ 35.409423, -1.343397, -14.818274 ], [ 35.409494, -1.344068, -14.814783 ], [ 35.404911, -1.345767, -14.813243 ], [ 35.404141, -1.346823, -14.8091 ], [ 35.404412, -1.348165, -14.801922 ], [ 35.402827, -1.348879, -14.800753 ], [ 35.403213, -1.349707, -14.79599 ], [ 35.40207, -1.350136, -14.795582 ], [ 35.402127, -1.350964, -14.791322 ], [ 35.399672, -1.351106, -14.794364 ], [ 35.401585, -1.356046, -14.766548 ], [ 35.401585, -1.357374, -14.759859 ], [ 35.400971, -1.357303, -14.761159 ], [ 35.402113, -1.359701, -14.747328 ], [ 35.401699, -1.360372, -14.744583 ], [ 35.402513, -1.361043, -14.739956 ], [ 35.401642, -1.362014, -14.736401 ], [ 35.401528, -1.36387, -14.727229 ], [ 35.400614, -1.364412, -14.725896 ], [ 35.401043, -1.364884, -14.722866 ], [ 35.399087, -1.365612, -14.722195 ], [ 35.400728, -1.366354, -14.715941 ], [ 35.399358, -1.367211, -14.713728 ], [ 35.399515, -1.368267, -14.708167 ], [ 35.401271, -1.368453, -14.704542 ], [ 35.399715, -1.36891, -14.704626 ], [ 35.39893, -1.370894, -14.695837 ], [ 35.4001, -1.370552, -14.695769 ], [ 35.400015, -1.371508, -14.691084 ], [ 35.401257, -1.372536, -14.684006 ], [ 35.4005, -1.37345, -14.680565 ], [ 35.400486, -1.376305, -14.666213 ], [ 35.398801, -1.376148, -14.669584 ], [ 35.398516, -1.374949, -14.676058 ], [ 35.398501, -1.375691, -14.672343 ], [ 35.397259, -1.376148, -14.671945 ], [ 35.398273, -1.37719, -14.665146 ], [ 35.395917, -1.377847, -14.665449 ], [ 35.396431, -1.379703, -14.655319 ], [ 35.394575, -1.381659, -14.648318 ], [ 35.393861, -1.386984, -14.62261 ], [ 35.392448, -1.388655, -14.61637 ], [ 35.394361, -1.38844, -14.614517 ], [ 35.39389, -1.390025, -14.607265 ], [ 35.394647, -1.391995, -14.596193 ], [ 35.394175, -1.394451, -14.58456 ], [ 35.39232, -1.396378, -14.577707 ], [ 35.393262, -1.398634, -14.564917 ], [ 35.393233, -1.404359, -14.536166 ], [ 35.392134, -1.40503, -14.534475 ], [ 35.393105, -1.406943, -14.523368 ], [ 35.392405, -1.407471, -14.521783 ], [ 35.393433, -1.4079, -14.518055 ], [ 35.392833, -1.408942, -14.513733 ], [ 35.394061, -1.410155, -14.50575 ], [ 35.394133, -1.411454, -14.499109 ], [ 35.397473, -1.411811, -14.492197 ], [ 35.396089, -1.413896, -14.483838 ], [ 35.397659, -1.414481, -14.478489 ], [ 35.397673, -1.415552, -14.473085 ], [ 35.396174, -1.41678, -14.469208 ], [ 35.398816, -1.420863, -14.444638 ], [ 35.397802, -1.422248, -14.43923 ], [ 35.398344, -1.427459, -14.412211 ], [ 35.39606, -1.428915, -14.408392 ], [ 35.396303, -1.430414, -14.400488 ], [ 35.395375, -1.430757, -14.400188 ], [ 35.395889, -1.432056, -14.392873 ], [ 35.394804, -1.431099, -14.399341 ], [ 35.394133, -1.432099, -14.395347 ], [ 35.395104, -1.432099, -14.39386 ], [ 35.394832, -1.43257, -14.391908 ], [ 35.392862, -1.432527, -14.395141 ], [ 35.39102, -1.433883, -14.391147 ], [ 35.390606, -1.432898, -14.396731 ], [ 35.389122, -1.434369, -14.391616 ], [ 35.388608, -1.433384, -14.397353 ], [ 35.387337, -1.433855, -14.396931 ], [ 35.388037, -1.435011, -14.39005 ], [ 35.385925, -1.434802, -14.394336 ], [ 35.383088, -1.437258, -14.386343 ], [ 35.381109, -1.437524, -14.388035 ], [ 35.381528, -1.440018, -14.374868 ], [ 35.378063, -1.440589, -14.377303 ], [ 35.377225, -1.441788, -14.372562 ], [ 35.374618, -1.440513, -14.38296 ], [ 35.372809, -1.436896, -14.403896 ], [ 35.369383, -1.435278, -14.417269 ], [ 35.36845, -1.438933, -14.400336 ], [ 35.362625, -1.440341, -14.402175 ], [ 35.361216, -1.442016, -14.395916 ], [ 35.352936, -1.441236, -14.412506 ], [ 35.351946, -1.442816, -14.406085 ], [ 35.349243, -1.442569, -14.411463 ], [ 35.346597, -1.443939, -14.408627 ], [ 35.347358, -1.444815, -14.403064 ], [ 35.347435, -1.445538, -14.399315 ], [ 35.345721, -1.446376, -14.39773 ], [ 35.345512, -1.448679, -14.386483 ], [ 35.341077, -1.45003, -14.38648 ], [ 35.342162, -1.452258, -14.373638 ], [ 35.339287, -1.45536, -14.362456 ], [ 35.338869, -1.458749, -14.346087 ], [ 35.337898, -1.458977, -14.346425 ], [ 35.336203, -1.457378, -14.357043 ], [ 35.335004, -1.457302, -14.359259 ], [ 35.332434, -1.461052, -14.344364 ], [ 35.327485, -1.460671, -14.353842 ], [ 35.325677, -1.463508, -14.34237 ], [ 35.32147, -1.463908, -14.346795 ], [ 35.317206, -1.462537, -14.360191 ], [ 35.313951, -1.462842, -14.363637 ], [ 35.311057, -1.466439, -14.350002 ], [ 35.308411, -1.466363, -14.354428 ], [ 35.30607, -1.468933, -14.345109 ], [ 35.303767, -1.468781, -14.349392 ], [ 35.304395, -1.470589, -14.339358 ], [ 35.302967, -1.472017, -14.334376 ], [ 35.301977, -1.471846, -14.336748 ], [ 35.300759, -1.469618, -14.349784 ], [ 35.299579, -1.470741, -14.345952 ], [ 35.297142, -1.470208, -14.352348 ], [ 35.30269, -1.465241, -14.368803 ], [ 35.253255, -1.409649, -14.723546 ], [ 35.244594, -1.418083, -14.694358 ], [ 35.225694, -1.396811, -14.830151 ], [ 35.225617, -1.390582, -14.861606 ], [ 35.229675, -1.382107, -14.898067 ], [ 35.233331, -1.376707, -14.919676 ], [ 35.237521, -1.372345, -14.935243 ], [ 35.23607, -1.363632, -14.981332 ], [ 35.239718, -1.361305, -14.987487 ], [ 35.244692, -1.354954, -15.011892 ], [ 35.25155, -1.34899, -15.031477 ], [ 35.261888, -1.326995, -15.126574 ], [ 35.264285, -1.3093, -15.212169 ], [ 35.273596, -1.314791, -15.170255 ], [ 35.274211, -1.314473, -15.17092 ], [ 35.277109, -1.317086, -15.153315 ], [ 35.279479, -1.317785, -15.146168 ], [ 35.279651, -1.317114, -15.149291 ], [ 35.281192, -1.317186, -15.146577 ], [ 35.288659, -1.322939, -15.106154 ], [ 35.287233, -1.325633, -15.094744 ], [ 35.288868, -1.326527, -15.087742 ], [ 35.289968, -1.330892, -15.06405 ], [ 35.290723, -1.341694, -15.008444 ], [ 35.312235, -1.36562, -14.855036 ], [ 35.320088, -1.358444, -14.879177 ], [ 35.323315, -1.358342, -14.874761 ], [ 35.323957, -1.356937, -14.880859 ], [ 35.3285, -1.357927, -14.868923 ], [ 35.329868, -1.359499, -14.858913 ], [ 35.332289, -1.359641, -14.854498 ], [ 35.335026, -1.362579, -14.835511 ], [ 35.336452, -1.360019, -14.846225 ], [ 35.336074, -1.356545, -14.864304 ], [ 35.337391, -1.356301, -14.863519 ], [ 35.337908, -1.354935, -14.869612 ], [ 35.33965, -1.354592, -14.868675 ], [ 35.340992, -1.352964, -14.874822 ], [ 35.343147, -1.353464, -14.869007 ], [ 35.344861, -1.351579, -14.875881 ], [ 35.346317, -1.352151, -14.870777 ], [ 35.349286, -1.351594, -14.869039 ], [ 35.349929, -1.350751, -14.872301 ], [ 35.354098, -1.350737, -14.865995 ], [ 35.357567, -1.347453, -14.877233 ], [ 35.358524, -1.347325, -14.876417 ], [ 35.359195, -1.348196, -14.871002 ], [ 35.362607, -1.34741, -14.869737 ], [ 35.364234, -1.345968, -14.874513 ], [ 35.366775, -1.346168, -14.869616 ], [ 35.373543, -1.340286, -14.888902 ], [ 35.375627, -1.339701, -14.888662 ], [ 35.375955, -1.33873, -14.893052 ], [ 35.381024, -1.337317, -14.892418 ], [ 35.38198, -1.334133, -14.907002 ], [ 35.384008, -1.333947, -14.904834 ], [ 35.38495, -1.331706, -14.914691 ], [ 35.386634, -1.331278, -14.914271 ], [ 35.386863, -1.330178, -14.919464 ], [ 35.390047, -1.329679, -14.917108 ], [ 35.392588, -1.327037, -14.926534 ], [ 35.392945, -1.325681, -14.932827 ], [ 35.390632, -1.319814, -14.96596 ], [ 35.39333, -1.313917, -14.99157 ], [ 35.392873, -1.310748, -15.00826 ], [ 35.393659, -1.309178, -15.014981 ], [ 35.392816, -1.306565, -15.029454 ], [ 35.393873, -1.303867, -15.041453 ], [ 35.396214, -1.302182, -15.046369 ], [ 35.397114, -1.298813, -15.061996 ] ] ] } },
{ "type": "Feature", "properties": { "name": "Olare Orok Conservancy", "type": "conservancy", "area_ha": 10037.8 }, "geometry": { "type": "Polygon", "coordinates": [ [ [ 35.225694, -1.39681, -14.830153 ], [ 35.215136, -1.386166, -14.899806 ], [ 35.152042, -1.336418, -15.246468 ], [ 35.153451, -1.332697, -15.26308 ], [ 35.146296, -1.327215, -15.301611 ], [ 35.146567, -1.326058, -15.30703 ], [ 35.147724, -1.325644, -15.307358 ], [ 35.148707, -1.32244, -15.322023 ], [ 35.149508, -1.322718, -15.319403 ], [ 35.149351, -1.321718, -15.324682 ], [ 35.15095, -1.321547, -15.323113 ], [ 35.150536, -1.320391, -15.329576 ], [ 35.151293, -1.319534, -15.332745 ], [ 35.149437, -1.320134, -15.332545 ], [ 35.148966, -1.318649, -15.340751 ], [ 35.150879, -1.315208, -15.355196 ], [ 35.150079, -1.314566, -15.359654 ], [ 35.148947, -1.315045, -15.358961 ], [ 35.148609, -1.313752, -15.365997 ], [ 35.149834, -1.313492, -15.365443 ], [ 35.149822, -1.312124, -15.372362 ], [ 35.148366, -1.311196, -15.379259 ], [ 35.149066, -1.309712, -15.385687 ], [ 35.150736, -1.310011, -15.381632 ], [ 35.150508, -1.30837, -15.390264 ], [ 35.15292, -1.307713, -15.389906 ], [ 35.152721, -1.306699, -15.395325 ], [ 35.153534, -1.306471, -15.39524 ], [ 35.152706, -1.304815, -15.404857 ], [ 35.153163, -1.303387, -15.411367 ], [ 35.15529, -1.303216, -15.408994 ], [ 35.154976, -1.301845, -15.41639 ], [ 35.156847, -1.300275, -15.42147 ], [ 35.155576, -1.299861, -15.425493 ], [ 35.156632, -1.298747, -15.429506 ], [ 35.155405, -1.297362, -15.438365 ], [ 35.166542, -1.303448, -15.390697 ], [ 35.175374, -1.293902, -15.425432 ], [ 35.175709, -1.292437, -15.432316 ], [ 35.172515, -1.290234, -15.448303 ], [ 35.177183, -1.282916, -15.47815 ], [ 35.181165, -1.284829, -15.462423 ], [ 35.195057, -1.265751, -15.537641 ], [ 35.197428, -1.257142, -15.577538 ], [ 35.204942, -1.258221, -15.560636 ], [ 35.205578, -1.261158, -15.544819 ], [ 35.213849, -1.254904, -15.563824 ], [ 35.21579, -1.259233, -15.538986 ], [ 35.208763, -1.264275, -15.524217 ], [ 35.216553, -1.271771, -15.474462 ], [ 35.22069, -1.268685, -15.483748 ], [ 35.220834, -1.272527, -15.464117 ], [ 35.22477, -1.275878, -15.44119 ], [ 35.225627, -1.278291, -15.427693 ], [ 35.231239, -1.281794, -15.401444 ], [ 35.232728, -1.286801, -15.373887 ], [ 35.234018, -1.28604, -15.375761 ], [ 35.235106, -1.287097, -15.368766 ], [ 35.234654, -1.28924, -15.358634 ], [ 35.228328, -1.292473, -15.351957 ], [ 35.236703, -1.305999, -15.270913 ], [ 35.239358, -1.311665, -15.238275 ], [ 35.236878, -1.316666, -15.216825 ], [ 35.241848, -1.318994, -15.197502 ], [ 35.249633, -1.321157, -15.174717 ], [ 35.258576, -1.320986, -15.161934 ], [ 35.262694, -1.322175, -15.149649 ], [ 35.261888, -1.326994, -15.126576 ], [ 35.25155, -1.34899, -15.031479 ], [ 35.244692, -1.354954, -15.011894 ], [ 35.239718, -1.361305, -14.987489 ], [ 35.23607, -1.363632, -14.981334 ], [ 35.23752, -1.372345, -14.935245 ], [ 35.233331, -1.376706, -14.919678 ], [ 35.229675, -1.382107, -14.898068 ], [ 35.225617, -1.390582, -14.861608 ], [ 35.225694, -1.39681, -14.830153 ] ] ] } },
{ "type": "Feature", "properties": { "name": "Motorogi Conservancy", "type": "conservancy", "area_ha": 4691.5 }, "geometry": { "type": "Polygon", "coordinates": [ [ [ 35.200202, -1.226619, -15.727681 ], [ 35.204146, -1.226724, -15.721138 ], [ 35.216851, -1.232599, -15.67205 ], [ 35.220494, -1.232758, -15.665688 ], [ 35.221491, -1.236591, -15.644782 ], [ 35.23224, -1.235289, -15.634976 ], [ 35.238544, -1.232915, -15.63737 ], [ 35.248911, -1.233593, -15.618124 ], [ 35.261405, -1.236331, -15.58521 ], [ 35.260771, -1.240047, -15.567382 ], [ 35.261209, -1.245471, -15.539284 ], [ 35.265412, -1.26804, -15.418784 ], [ 35.265533, -1.271964, -15.398776 ], [ 35.26431, -1.299176, -15.263227 ], [ 35.264975, -1.306805, -15.223708 ], [ 35.263845, -1.310892, -15.20481 ], [ 35.262694, -1.322175, -15.14965 ], [ 35.258576, -1.320986, -15.161935 ], [ 35.249633, -1.321157, -15.174718 ], [ 35.241848, -1.318994, -15.197503 ], [ 35.236878, -1.316666, -15.216826 ], [ 35.239358, -1.311665, -15.238276 ], [ 35.236703, -1.305999, -15.270914 ], [ 35.228328, -1.292473, -15.351958 ], [ 35.234654, -1.28924, -15.358635 ], [ 35.235105, -1.287097, -15.368766 ], [ 35.234018, -1.28604, -15.375762 ], [ 35.232728, -1.2868, -15.373888 ], [ 35.231239, -1.281793, -15.401445 ], [ 35.225627, -1.278291, -15.427694 ], [ 35.22477, -1.275878, -15.44119 ], [ 35.220834, -1.272527, -15.464118 ], [ 35.22069, -1.268685, -15.483749 ], [ 35.216553, -1.271771, -15.474462 ], [ 35.208763, -1.264274, -15.524217 ], [ 35.21579, -1.259233, -15.538986 ], [ 35.213849, -1.254904, -15.563825 ], [ 35.205578, -1.261158, -15.54482 ], [ 35.20125, -1.244988, -15.633162 ], [ 35.201092, -1.241815, -15.649449 ], [ 35.198595, -1.238997, -15.667509 ], [ 35.193785, -1.229833, -15.721191 ], [ 35.19565, -1.228277, -15.726226 ], [ 35.200202, -1.226619, -15.727681 ] ] ] } },
{ "type": "Feature", "properties": { "name": "Lemek Conservancy", "type": "conservancy", "area_ha": 6022.6 }, "geometry": { "type": "Polygon", "coordinates": [ [ [ 35.153845, -1.126604, -16.305223 ], [ 35.165325, -1.128157, -16.279863 ], [ 35.192975, -1.122513, -16.266411 ], [ 35.207172, -1.130548, -16.203979 ], [ 35.235054, -1.151826, -16.053489 ], [ 35.237118, -1.151309, -16.052963 ], [ 35.236855, -1.145849, -16.081066 ], [ 35.25027, -1.143759, -16.071204 ], [ 35.252801, -1.144607, -16.063041 ], [ 35.251782, -1.147754, -16.048629 ], [ 35.254229, -1.152254, -16.022065 ], [ 35.25666, -1.161726, -15.970311 ], [ 35.251619, -1.167688, -15.947774 ], [ 35.243007, -1.166881, -15.965004 ], [ 35.227528, -1.175165, -15.946614 ], [ 35.22194, -1.176933, -15.946176 ], [ 35.205757, -1.184431, -15.932841 ], [ 35.203372, -1.186648, -15.925243 ], [ 35.194396, -1.187713, -15.933523 ], [ 35.191302, -1.187146, -15.941112 ], [ 35.188396, -1.185421, -15.954276 ], [ 35.174788, -1.184971, -15.977283 ], [ 35.12694, -1.139984, -16.278234 ], [ 35.124098, -1.140004, -16.282453 ], [ 35.121529, -1.137764, -16.29773 ], [ 35.131136, -1.134873, -16.297792 ], [ 35.133312, -1.134976, -16.293962 ], [ 35.134234, -1.137869, -16.277876 ], [ 35.137876, -1.137532, -16.274045 ], [ 35.141607, -1.139942, -16.256135 ], [ 35.143169, -1.137049, -16.268442 ], [ 35.147035, -1.134464, -16.275685 ], [ 35.148955, -1.131596, -16.287319 ], [ 35.151797, -1.130188, -16.290143 ], [ 35.153845, -1.126604, -16.305223 ] ] ] } },
{ "type": "Feature", "properties": { "name": "Mara North Conservancy", "type": "conservancy", "area_ha": 29542.7 }, "geometry": { "type": "Polygon", "coordinates": [ [ [ 35.146296, -1.327215, -15.301611 ], [ 35.153451, -1.332697, -15.26308 ], [ 35.152042, -1.336418, -15.246468 ], [ 35.035174, -1.244708, -15.887081 ], [ 35.040799, -1.238799, -15.908432 ], [ 35.034359, -1.229836, -15.963544 ], [ 35.038573, -1.227432, -15.969314 ], [ 35.036585, -1.224464, -15.987348 ], [ 35.04065, -1.215798, -16.025041 ], [ 35.039938, -1.214938, -16.030478 ], [ 35.037801, -1.215531, -16.030715 ], [ 35.037683, -1.213157, -16.042915 ], [ 35.040472, -1.211287, -16.048148 ], [ 35.043084, -1.213424, -16.033367 ], [ 35.044627, -1.212831, -16.03403 ], [ 35.044093, -1.210367, -16.047312 ], [ 35.041204, -1.206977, -16.06886 ], [ 35.047415, -1.203384, -16.07763 ], [ 35.048414, -1.200886, -16.088767 ], [ 35.052554, -1.199553, -16.089232 ], [ 35.053197, -1.196936, -16.101514 ], [ 35.051674, -1.195556, -16.110816 ], [ 35.051341, -1.194009, -16.119156 ], [ 35.058122, -1.191606, -16.121038 ], [ 35.058408, -1.190369, -16.126873 ], [ 35.057432, -1.188441, -16.138119 ], [ 35.05786, -1.186704, -16.146271 ], [ 35.061382, -1.186086, -16.144059 ], [ 35.064214, -1.182778, -16.156521 ], [ 35.06695, -1.183373, -16.149352 ], [ 35.06714, -1.180256, -16.16486 ], [ 35.0699, -1.180327, -16.160307 ], [ 35.072232, -1.179185, -16.162555 ], [ 35.073755, -1.176187, -16.175439 ], [ 35.077777, -1.172523, -16.187907 ], [ 35.077681, -1.169168, -16.205061 ], [ 35.079014, -1.166241, -16.217877 ], [ 35.080608, -1.162981, -16.231986 ], [ 35.083773, -1.161244, -16.235987 ], [ 35.084249, -1.158436, -16.249505 ], [ 35.086842, -1.158056, -16.247496 ], [ 35.089483, -1.154367, -16.262191 ], [ 35.090697, -1.156985, -16.247071 ], [ 35.095075, -1.15539, -16.248505 ], [ 35.096574, -1.151107, -16.267955 ], [ 35.099263, -1.148514, -16.277027 ], [ 35.098597, -1.145801, -16.291803 ], [ 35.096693, -1.143184, -16.307977 ], [ 35.097026, -1.141732, -16.314837 ], [ 35.098831, -1.141372, -16.313921 ], [ 35.101499, -1.143259, -16.300294 ], [ 35.10704, -1.145156, -16.282246 ], [ 35.107019, -1.146778, -16.274045 ], [ 35.109119, -1.148929, -16.259942 ], [ 35.112575, -1.142016, -16.289763 ], [ 35.116364, -1.138458, -16.302063 ], [ 35.121596, -1.137823, -16.297328 ], [ 35.124098, -1.140005, -16.282452 ], [ 35.12694, -1.139984, -16.278233 ], [ 35.174788, -1.184971, -15.977282 ], [ 35.188396, -1.185421, -15.954275 ], [ 35.191302, -1.187146, -15.941111 ], [ 35.194397, -1.187713, -15.933522 ], [ 35.203372, -1.186648, -15.925242 ], [ 35.205757, -1.184431, -15.93284 ], [ 35.22194, -1.176933, -15.946175 ], [ 35.227528, -1.175165, -15.946613 ], [ 35.243007, -1.166881, -15.965003 ], [ 35.251619, -1.167688, -15.947773 ], [ 35.25666, -1.161726, -15.970309 ], [ 35.254229, -1.152254, -16.022064 ], [ 35.251782, -1.147754, -16.048628 ], [ 35.252726, -1.144562, -16.063383 ], [ 35.269695, -1.143662, -16.042047 ], [ 35.267689, -1.117547, -16.177689 ], [ 35.267817, -1.112213, -16.204585 ], [ 35.268654, -1.109564, -16.216767 ], [ 35.278315, -1.103961, -16.230486 ], [ 35.299376, -1.088133, -16.27876 ], [ 35.299514, -1.096125, -16.237927 ], [ 35.307988, -1.096923, -16.220922 ], [ 35.308387, -1.099453, -16.20745 ], [ 35.306403, -1.101851, -16.1983 ], [ 35.305984, -1.111822, -16.148279 ], [ 35.305053, -1.115845, -16.129264 ], [ 35.30385, -1.117564, -16.122374 ], [ 35.304507, -1.129758, -16.059449 ], [ 35.308143, -1.138361, -16.010223 ], [ 35.318413, -1.143668, -15.967594 ], [ 35.324857, -1.142307, -15.964649 ], [ 35.343649, -1.143648, -15.929109 ], [ 35.346362, -1.148663, -15.899515 ], [ 35.343658, -1.154839, -15.872319 ], [ 35.322849, -1.163037, -15.862562 ], [ 35.310654, -1.160941, -15.891832 ], [ 35.305441, -1.162283, -15.892992 ], [ 35.300757, -1.173099, -15.845311 ], [ 35.300543, -1.17593, -15.831288 ], [ 35.27068, -1.176865, -15.872156 ], [ 35.268319, -1.172402, -15.898382 ], [ 35.265258, -1.172097, -15.904602 ], [ 35.265515, -1.173585, -15.896671 ], [ 35.26405, -1.177073, -15.881225 ], [ 35.239476, -1.177842, -15.914823 ], [ 35.240133, -1.180193, -15.901903 ], [ 35.228735, -1.180299, -15.918751 ], [ 35.22784, -1.178492, -15.929275 ], [ 35.224283, -1.178142, -15.936471 ], [ 35.219093, -1.17962, -15.936895 ], [ 35.21898, -1.181772, -15.926162 ], [ 35.223539, -1.188223, -15.886522 ], [ 35.214331, -1.19926, -15.84465 ], [ 35.19276, -1.207739, -15.834581 ], [ 35.190582, -1.212731, -15.812625 ], [ 35.190432, -1.214241, -15.805208 ], [ 35.192363, -1.21631, -15.791795 ], [ 35.191642, -1.22046, -15.771887 ], [ 35.19255, -1.225911, -15.74292 ], [ 35.193785, -1.229834, -15.72119 ], [ 35.198595, -1.238997, -15.667508 ], [ 35.201092, -1.241815, -15.649448 ], [ 35.20125, -1.244989, -15.633161 ], [ 35.204836, -1.258203, -15.560888 ], [ 35.197428, -1.257142, -15.577537 ], [ 35.195057, -1.265751, -15.53764 ], [ 35.181166, -1.28483, -15.462422 ], [ 35.177183, -1.282916, -15.478149 ], [ 35.172515, -1.290234, -15.448303 ], [ 35.17571, -1.292437, -15.432316 ], [ 35.175374, -1.293902, -15.425431 ], [ 35.166542, -1.303448, -15.390696 ], [ 35.155405, -1.297362, -15.438364 ], [ 35.156632, -1.298747, -15.429505 ], [ 35.155576, -1.299861, -15.425492 ], [ 35.156847, -1.300275, -15.421469 ], [ 35.154976, -1.301845, -15.416389 ], [ 35.15529, -1.303216, -15.408994 ], [ 35.153163, -1.303387, -15.411366 ], [ 35.152706, -1.304815, -15.404857 ], [ 35.153534, -1.306471, -15.395239 ], [ 35.152721, -1.306699, -15.395325 ], [ 35.15292, -1.307713, -15.389906 ], [ 35.150508, -1.30837, -15.390263 ], [ 35.150736, -1.310011, -15.381631 ], [ 35.149035, -1.309719, -15.385694 ], [ 35.148366, -1.311196, -15.379259 ], [ 35.149822, -1.312124, -15.372361 ], [ 35.149834, -1.313492, -15.365443 ], [ 35.148609, -1.313752, -15.365996 ], [ 35.148947, -1.315045, -15.358961 ], [ 35.150865, -1.315051, -15.35601 ], [ 35.148994, -1.318463, -15.341644 ], [ 35.149337, -1.320019, -15.333273 ], [ 35.151293, -1.319534, -15.332745 ], [ 35.150536, -1.320391, -15.329576 ], [ 35.150822, -1.321847, -15.321797 ], [ 35.149351, -1.321718, -15.324682 ], [ 35.149737, -1.322589, -15.319703 ], [ 35.148707, -1.32244, -15.322023 ], [ 35.147724, -1.325644, -15.307358 ], [ 35.146567, -1.326058, -15.30703 ], [ 35.146296, -1.327215, -15.301611 ] ] ] } },
{ "type": "Feature", "properties": { "name": "Olchorro Oiroua Conservancy", "type": "conservancy", "area_ha": 5508.1 }, "geometry": { "type": "Polygon", "coordinates": [ [ [ 35.205689, -1.091708, -16.403549 ], [ 35.207353, -1.091299, -16.403095 ], [ 35.208695, -1.097305, -16.370519 ], [ 35.222374, -1.102231, -16.324633 ], [ 35.225717, -1.087429, -16.39477 ], [ 35.236813, -1.088976, -16.369985 ], [ 35.245586, -1.091311, -16.34473 ], [ 35.263657, -1.105056, -16.247295 ], [ 35.2685, -1.110631, -16.211584 ], [ 35.267689, -1.117547, -16.17769 ], [ 35.269695, -1.143662, -16.042048 ], [ 35.252721, -1.14458, -16.063301 ], [ 35.25027, -1.143759, -16.071204 ], [ 35.236855, -1.145849, -16.081066 ], [ 35.237118, -1.151309, -16.052963 ], [ 35.235054, -1.151826, -16.053488 ], [ 35.207172, -1.130548, -16.203979 ], [ 35.192975, -1.122513, -16.266411 ], [ 35.165325, -1.128157, -16.279862 ], [ 35.158633, -1.126988, -16.295987 ], [ 35.16063, -1.124812, -16.303997 ], [ 35.158965, -1.116261, -16.349956 ], [ 35.162166, -1.115211, -16.350416 ], [ 35.160502, -1.112574, -16.366344 ], [ 35.163599, -1.110475, -16.372293 ], [ 35.165144, -1.107599, -16.384553 ], [ 35.169919, -1.106239, -16.384191 ], [ 35.173994, -1.103127, -16.393799 ], [ 35.175811, -1.10346, -16.38934 ], [ 35.177143, -1.101719, -16.396159 ], [ 35.176989, -1.097495, -16.417862 ], [ 35.175658, -1.098288, -16.415855 ], [ 35.172534, -1.09432, -16.440781 ], [ 35.173328, -1.093065, -16.445949 ], [ 35.174634, -1.095062, -16.43381 ], [ 35.175427, -1.095037, -16.432732 ], [ 35.176349, -1.094371, -16.434711 ], [ 35.176682, -1.09263, -16.443054 ], [ 35.174173, -1.092297, -16.448566 ], [ 35.171357, -1.088457, -16.472377 ], [ 35.172432, -1.087356, -16.476337 ], [ 35.172509, -1.085129, -16.487545 ], [ 35.174122, -1.085257, -16.484438 ], [ 35.173866, -1.083388, -16.494331 ], [ 35.175146, -1.081417, -16.502406 ], [ 35.174403, -1.080264, -16.509396 ], [ 35.174762, -1.079189, -16.514318 ], [ 35.177296, -1.0786, -16.513453 ], [ 35.176605, -1.077064, -16.522318 ], [ 35.17809, -1.077602, -16.517322 ], [ 35.180778, -1.076245, -16.520129 ], [ 35.182033, -1.079368, -16.502333 ], [ 35.184337, -1.080418, -16.493486 ], [ 35.183108, -1.08157, -16.489499 ], [ 35.183927, -1.082389, -16.484085 ], [ 35.187255, -1.079624, -16.493076 ], [ 35.188203, -1.079855, -16.490461 ], [ 35.189534, -1.078831, -16.493641 ], [ 35.189406, -1.080674, -16.484462 ], [ 35.188177, -1.081877, -16.480215 ], [ 35.188356, -1.082748, -16.475516 ], [ 35.189969, -1.082773, -16.472929 ], [ 35.191787, -1.080136, -16.483569 ], [ 35.192811, -1.082799, -16.468469 ], [ 35.191736, -1.086486, -16.451362 ], [ 35.193912, -1.087587, -16.442449 ], [ 35.193118, -1.089404, -16.434417 ], [ 35.194552, -1.089123, -16.433665 ], [ 35.194475, -1.090403, -16.427274 ], [ 35.195781, -1.089916, -16.427757 ], [ 35.196139, -1.091606, -16.418621 ], [ 35.198367, -1.093449, -16.405857 ], [ 35.198495, -1.091017, -16.418026 ], [ 35.199724, -1.09094, -16.416544 ], [ 35.200799, -1.092195, -16.408528 ], [ 35.19957, -1.093987, -16.401291 ], [ 35.200645, -1.093654, -16.401344 ], [ 35.202924, -1.095754, -16.387201 ], [ 35.204613, -1.096214, -16.382284 ], [ 35.206892, -1.094883, -16.385578 ], [ 35.20661, -1.094013, -16.390432 ], [ 35.203922, -1.09368, -16.39622 ], [ 35.205689, -1.091708, -16.403549 ] ] ] } },
{ "type": "Feature", "properties": { "name": "Enonkishu Conservancy", "type": "conservancy", "area_ha": 3040.8 }, "geometry": { "type": "Polygon", "coordinates": [ [ [ 35.214521, -1.074837, -16.475876 ], [ 35.214086, -1.073736, -16.482139 ], [ 35.215469, -1.073864, -16.47938 ], [ 35.217082, -1.071483, -16.489032 ], [ 35.217978, -1.067976, -16.505509 ], [ 35.217491, -1.06667, -16.512894 ], [ 35.219335, -1.066363, -16.511646 ], [ 35.218976, -1.065108, -16.518576 ], [ 35.220077, -1.064084, -16.522108 ], [ 35.219565, -1.062036, -16.53331 ], [ 35.223943, -1.064494, -16.514129 ], [ 35.224736, -1.061396, -16.528682 ], [ 35.224813, -1.063009, -16.520357 ], [ 35.225889, -1.062983, -16.518848 ], [ 35.229473, -1.061729, -16.519765 ], [ 35.232187, -1.059117, -16.528916 ], [ 35.231931, -1.055738, -16.546505 ], [ 35.23001, -1.055072, -16.552821 ], [ 35.229729, -1.054125, -16.558072 ], [ 35.233441, -1.053357, -16.55632 ], [ 35.233083, -1.052563, -16.560906 ], [ 35.233979, -1.052435, -16.560191 ], [ 35.234056, -1.051667, -16.563984 ], [ 35.232622, -1.050541, -16.571905 ], [ 35.232994, -1.049557, -16.576345 ], [ 35.25622, -1.062691, -16.474066 ], [ 35.268557, -1.060855, -16.464573 ], [ 35.287761, -1.096811, -16.252391 ], [ 35.278314, -1.10396, -16.230487 ], [ 35.268654, -1.109564, -16.216768 ], [ 35.2685, -1.110631, -16.211584 ], [ 35.263657, -1.105056, -16.247295 ], [ 35.245587, -1.091311, -16.34473 ], [ 35.236813, -1.088976, -16.369985 ], [ 35.225717, -1.087429, -16.39477 ], [ 35.222374, -1.102231, -16.324632 ], [ 35.208695, -1.097305, -16.370518 ], [ 35.207353, -1.091299, -16.403095 ], [ 35.209222, -1.092092, -16.396212 ], [ 35.209631, -1.090172, -16.405348 ], [ 35.211219, -1.088303, -16.41243 ], [ 35.214368, -1.090505, -16.396437 ], [ 35.215289, -1.089942, -16.397895 ], [ 35.214368, -1.089199, -16.403075 ], [ 35.213267, -1.083695, -16.432739 ], [ 35.21104, -1.083977, -16.434702 ], [ 35.210425, -1.082901, -16.441106 ], [ 35.211372, -1.081929, -16.444609 ], [ 35.213548, -1.081596, -16.442985 ], [ 35.214189, -1.079036, -16.455029 ], [ 35.215878, -1.07988, -16.448156 ], [ 35.216185, -1.079138, -16.451464 ], [ 35.215161, -1.077525, -16.461228 ], [ 35.217875, -1.076757, -16.460997 ], [ 35.218746, -1.074965, -16.468785 ], [ 35.217158, -1.073787, -16.477195 ], [ 35.216518, -1.074606, -16.474003 ], [ 35.214521, -1.074837, -16.475876 ] ] ] } },
{ "type": "Feature", "properties": { "name": "Olderkesi Conservancy", "type": "conservancy", "area_ha": 3881.4 }, "geometry": { "type": "Polygon", "coordinates": [ [ [ 35.327386, -1.721402, -13.051177 ], [ 35.325325, -1.715825, -13.082072 ], [ 35.326658, -1.713756, -13.090325 ], [ 35.326143, -1.712517, -13.097279 ], [ 35.327472, -1.707969, -13.117879 ], [ 35.323975, -1.702703, -13.149432 ], [ 35.32387, -1.70136, -13.156278 ], [ 35.321195, -1.69939, -13.170173 ], [ 35.320167, -1.696094, -13.188149 ], [ 35.321492, -1.687413, -13.229353 ], [ 35.327233, -1.679139, -13.261786 ], [ 35.327127, -1.676866, -13.273272 ], [ 35.326098, -1.675007, -13.284105 ], [ 35.32733, -1.674799, -13.283259 ], [ 35.32917, -1.667461, -13.317015 ], [ 35.332567, -1.667572, -13.311265 ], [ 35.335928, -1.665163, -13.318134 ], [ 35.337117, -1.665104, -13.316611 ], [ 35.343244, -1.667632, -13.294642 ], [ 35.343096, -1.669446, -13.285828 ], [ 35.345059, -1.670517, -13.27749 ], [ 35.345862, -1.669416, -13.281746 ], [ 35.345416, -1.666323, -13.297843 ], [ 35.34604, -1.665847, -13.29926 ], [ 35.349699, -1.666829, -13.288773 ], [ 35.355647, -1.666382, -13.281896 ], [ 35.357076, -1.667048, -13.276391 ], [ 35.356991, -1.669581, -13.2639 ], [ 35.357997, -1.671171, -13.254439 ], [ 35.359098, -1.670428, -13.25646 ], [ 35.359514, -1.668197, -13.266939 ], [ 35.363148, -1.666331, -13.270676 ], [ 35.363202, -1.663765, -13.283383 ], [ 35.364456, -1.663278, -13.283889 ], [ 35.369062, -1.667691, -13.25485 ], [ 35.368972, -1.669089, -13.24802 ], [ 35.366474, -1.670725, -13.243692 ], [ 35.366771, -1.671677, -13.238494 ], [ 35.370073, -1.671558, -13.234034 ], [ 35.372125, -1.673015, -13.223632 ], [ 35.37272, -1.675811, -13.208791 ], [ 35.374228, -1.676357, -13.203765 ], [ 35.377241, -1.675781, -13.20202 ], [ 35.380602, -1.679172, -13.179983 ], [ 35.383814, -1.679856, -13.171658 ], [ 35.38774, -1.67938, -13.168018 ], [ 35.390923, -1.683871, -13.140774 ], [ 35.391042, -1.684523, -13.137347 ], [ 35.388807, -1.686345, -13.131692 ], [ 35.389402, -1.688874, -13.118191 ], [ 35.388063, -1.69274, -13.100987 ], [ 35.373638, -1.705976, -13.057182 ], [ 35.358023, -1.725607, -12.983413 ], [ 35.353859, -1.726499, -12.985345 ], [ 35.352818, -1.727391, -12.9825 ], [ 35.352941, -1.730892, -12.964901 ], [ 35.347049, -1.737276, -12.942175 ], [ 35.327288, -1.725742, -13.029739 ], [ 35.327386, -1.721402, -13.051177 ] ] ] } },
{ "type": "Feature", "properties": { "name": "Oloisukut Conservancy", "type": "conservancy", "area_ha": 6862.5 }, "geometry": { "type": "Polygon", "coordinates": [ [ [ 35.072632, -1.127109, -16.426125 ], [ 35.07592, -1.125696, -16.428304 ], [ 35.088586, -1.127653, -16.399127 ], [ 35.096158, -1.138985, -16.330098 ], [ 35.097026, -1.141732, -16.314837 ], [ 35.096693, -1.143184, -16.307977 ], [ 35.098597, -1.145801, -16.291803 ], [ 35.099263, -1.148514, -16.277027 ], [ 35.096574, -1.151107, -16.267955 ], [ 35.095075, -1.15539, -16.248505 ], [ 35.090697, -1.156985, -16.247072 ], [ 35.089483, -1.154367, -16.262192 ], [ 35.086842, -1.158055, -16.247497 ], [ 35.084249, -1.158436, -16.249506 ], [ 35.083773, -1.161244, -16.235988 ], [ 35.080608, -1.162981, -16.231987 ], [ 35.079014, -1.166241, -16.217878 ], [ 35.077681, -1.169168, -16.205062 ], [ 35.077776, -1.172523, -16.187908 ], [ 35.073755, -1.176187, -16.17544 ], [ 35.072232, -1.179185, -16.162556 ], [ 35.0699, -1.180327, -16.160308 ], [ 35.06714, -1.180256, -16.164861 ], [ 35.06695, -1.183373, -16.149353 ], [ 35.064214, -1.182778, -16.156522 ], [ 35.061382, -1.186086, -16.144061 ], [ 35.05786, -1.186704, -16.146272 ], [ 35.057432, -1.188441, -16.138121 ], [ 35.058408, -1.190369, -16.126875 ], [ 35.058122, -1.191606, -16.121039 ], [ 35.051341, -1.194009, -16.119158 ], [ 35.051674, -1.195556, -16.110817 ], [ 35.053197, -1.196936, -16.101515 ], [ 35.052554, -1.199553, -16.089233 ], [ 35.048414, -1.200886, -16.088768 ], [ 35.047415, -1.203384, -16.077631 ], [ 35.041204, -1.206977, -16.06886 ], [ 35.044093, -1.210367, -16.047313 ], [ 35.044627, -1.21283, -16.034031 ], [ 35.043084, -1.213424, -16.033368 ], [ 35.040472, -1.211287, -16.048149 ], [ 35.037683, -1.213157, -16.042915 ], [ 35.037801, -1.215531, -16.030716 ], [ 35.039938, -1.214938, -16.030479 ], [ 35.04065, -1.215798, -16.025041 ], [ 35.036585, -1.224464, -15.987349 ], [ 35.038573, -1.227432, -15.969315 ], [ 35.034359, -1.229836, -15.963545 ], [ 35.040799, -1.238799, -15.908433 ], [ 35.035173, -1.244708, -15.887082 ], [ 35.020333, -1.233045, -15.968584 ], [ 35.020118, -1.237068, -15.948556 ], [ 35.00564, -1.234834, -15.981806 ], [ 35.00133, -1.197292, -16.178377 ], [ 35.000566, -1.193461, -16.198939 ], [ 34.997994, -1.189249, -16.224179 ], [ 35.004069, -1.167694, -16.324222 ], [ 35.006351, -1.165681, -16.330969 ], [ 35.043354, -1.147266, -16.368261 ], [ 35.046587, -1.144965, -16.375029 ], [ 35.049437, -1.137588, -16.408142 ], [ 35.063041, -1.133747, -16.406987 ], [ 35.072632, -1.127109, -16.426125 ] ] ] } },
{ "type": "Feature", "properties": { "name": "Nashulai Conservancy", "type": "conservancy", "area_ha": 3544.8 }, "geometry": { "type": "Polygon", "coordinates": [ [ [ 35.345721, -1.446375, -14.397731 ], [ 35.348218, -1.446276, -14.394409 ], [ 35.349455, -1.447691, -14.385412 ], [ 35.351584, -1.447593, -14.382647 ], [ 35.353964, -1.450193, -14.365952 ], [ 35.35406, -1.451647, -14.358504 ], [ 35.359823, -1.453669, -14.339534 ], [ 35.360264, -1.457515, -14.319553 ], [ 35.36428, -1.45824, -14.309768 ], [ 35.365144, -1.460541, -14.296895 ], [ 35.366273, -1.461108, -14.292321 ], [ 35.369571, -1.461134, -14.287142 ], [ 35.370017, -1.461732, -14.283461 ], [ 35.369096, -1.462211, -14.282463 ], [ 35.369217, -1.463975, -14.273427 ], [ 35.370258, -1.46493, -14.267038 ], [ 35.372456, -1.465077, -14.262935 ], [ 35.368364, -1.472376, -14.232571 ], [ 35.364769, -1.483766, -14.18094 ], [ 35.357935, -1.493168, -14.144251 ], [ 35.353936, -1.505494, -14.088579 ], [ 35.343526, -1.513178, -14.065999 ], [ 35.340599, -1.514176, -14.065475 ], [ 35.337084, -1.521727, -14.033026 ], [ 35.299135, -1.479319, -14.303596 ], [ 35.302527, -1.475949, -14.315318 ], [ 35.302264, -1.47326, -14.329215 ], [ 35.301661, -1.473247, -14.3302 ], [ 35.301977, -1.471845, -14.336749 ], [ 35.302967, -1.472017, -14.334377 ], [ 35.304281, -1.470875, -14.338101 ], [ 35.303767, -1.468781, -14.349394 ], [ 35.30607, -1.468933, -14.34511 ], [ 35.308411, -1.466363, -14.354429 ], [ 35.311057, -1.466439, -14.350003 ], [ 35.313951, -1.462841, -14.363638 ], [ 35.317206, -1.462537, -14.360192 ], [ 35.32147, -1.463907, -14.346795 ], [ 35.325677, -1.463508, -14.342371 ], [ 35.327485, -1.460671, -14.353843 ], [ 35.332434, -1.461052, -14.344365 ], [ 35.335004, -1.457302, -14.359259 ], [ 35.336203, -1.457378, -14.357043 ], [ 35.337898, -1.458977, -14.346426 ], [ 35.339078, -1.458634, -14.346341 ], [ 35.338659, -1.457073, -14.354817 ], [ 35.339287, -1.45536, -14.362457 ], [ 35.342162, -1.452257, -14.373639 ], [ 35.341077, -1.45003, -14.386482 ], [ 35.345512, -1.448679, -14.386484 ], [ 35.345721, -1.446375, -14.397731 ] ] ] } },
{ "type": "Feature", "properties": { "name": "Olarro North Conservancy", "type": "conservancy", "area_ha": 2929.2 }, "geometry": { "type": "Polygon", "coordinates": [ [ [ 35.596129, -1.418443, -14.153777 ], [ 35.610861, -1.428575, -14.080165 ], [ 35.588998, -1.460311, -13.954454 ], [ 35.59193, -1.46241, -13.939406 ], [ 35.588961, -1.466716, -13.922364 ], [ 35.585993, -1.464617, -13.937467 ], [ 35.58288, -1.468851, -13.921012 ], [ 35.571731, -1.4606, -13.979576 ], [ 35.569378, -1.463351, -13.969393 ], [ 35.555983, -1.457009, -14.021829 ], [ 35.554442, -1.469108, -13.963481 ], [ 35.552734, -1.46886, -13.967351 ], [ 35.550296, -1.469796, -13.966402 ], [ 35.54845, -1.471531, -13.960536 ], [ 35.54655, -1.471916, -13.961524 ], [ 35.542748, -1.470209, -13.975936 ], [ 35.542004, -1.468199, -13.987167 ], [ 35.537294, -1.464233, -14.01431 ], [ 35.535544, -1.465046, -14.012922 ], [ 35.535393, -1.46718, -14.002444 ], [ 35.524626, -1.464711, -14.031384 ], [ 35.525719, -1.457828, -14.064254 ], [ 35.528125, -1.458097, -14.059204 ], [ 35.524357, -1.451924, -14.095986 ], [ 35.525149, -1.449011, -14.109393 ], [ 35.527522, -1.446687, -14.117417 ], [ 35.529918, -1.447113, -14.111593 ], [ 35.532903, -1.445327, -14.115976 ], [ 35.532961, -1.44164, -14.134402 ], [ 35.536901, -1.437822, -14.147521 ], [ 35.541553, -1.436922, -14.144893 ], [ 35.543597, -1.437796, -14.137361 ], [ 35.544807, -1.436236, -14.143333 ], [ 35.545856, -1.436344, -14.14118 ], [ 35.546892, -1.43508, -14.145935 ], [ 35.549124, -1.434316, -14.146341 ], [ 35.554376, -1.4358, -14.130808 ], [ 35.55607, -1.43405, -14.136994 ], [ 35.558143, -1.434456, -14.131766 ], [ 35.56156, -1.432972, -14.133965 ], [ 35.562765, -1.433168, -14.131127 ], [ 35.563031, -1.435562, -14.11869 ], [ 35.566564, -1.430956, -14.136398 ], [ 35.575362, -1.436931, -14.092842 ], [ 35.577983, -1.431985, -14.113655 ], [ 35.57571, -1.430448, -14.124877 ], [ 35.579026, -1.426264, -14.140797 ], [ 35.581473, -1.427266, -14.131993 ], [ 35.584241, -1.429726, -14.115374 ], [ 35.587236, -1.425355, -14.132727 ], [ 35.590084, -1.427306, -14.118536 ], [ 35.591555, -1.425101, -14.127355 ], [ 35.587543, -1.422307, -14.14757 ], [ 35.589041, -1.420155, -14.156082 ], [ 35.593092, -1.422922, -14.135937 ], [ 35.596129, -1.418443, -14.153777 ] ] ] } },
{ "type": "Feature", "properties": { "name": "Olarro South Conservancy", "type": "conservancy", "area_ha": 5411.0 }, "geometry": { "type": "Polygon", "coordinates": [ [ [ 35.478077, -1.549226, -13.679347 ], [ 35.461088, -1.533817, -13.782548 ], [ 35.460987, -1.518617, -13.858824 ], [ 35.458493, -1.518617, -13.862651 ], [ 35.458353, -1.514559, -13.883191 ], [ 35.458895, -1.514513, -13.882592 ], [ 35.4635, -1.49033, -13.996732 ], [ 35.449535, -1.469709, -14.121591 ], [ 35.446708, -1.452871, -14.210438 ], [ 35.460304, -1.440398, -14.252223 ], [ 35.486642, -1.462607, -14.100287 ], [ 35.486599, -1.463676, -14.09499 ], [ 35.483654, -1.46372, -14.099291 ], [ 35.502963, -1.480119, -13.98736 ], [ 35.505642, -1.497155, -13.897821 ], [ 35.508333, -1.498957, -13.884656 ], [ 35.508558, -1.501924, -13.869433 ], [ 35.507444, -1.502945, -13.86603 ], [ 35.507193, -1.506814, -13.847028 ], [ 35.510923, -1.531226, -13.719012 ], [ 35.515958, -1.535198, -13.691387 ], [ 35.517214, -1.53522, -13.68935 ], [ 35.516374, -1.53645, -13.684485 ], [ 35.504969, -1.542001, -13.674215 ], [ 35.506105, -1.548112, -13.641889 ], [ 35.497082, -1.548064, -13.655986 ], [ 35.496999, -1.552561, -13.633614 ], [ 35.484981, -1.552844, -13.650647 ], [ 35.478077, -1.549226, -13.679347 ] ] ] } },
{ "type": "Feature", "properties": { "name": "Siana Conservancy", "type": "conservancy", "area_ha": 3482.8 }, "geometry": { "type": "Polygon", "coordinates": [ [ [ 35.443043, -1.515195, -13.903485 ], [ 35.458353, -1.514559, -13.883191 ], [ 35.458493, -1.518617, -13.862651 ], [ 35.460987, -1.518617, -13.858824 ], [ 35.461088, -1.533817, -13.782548 ], [ 35.44842, -1.53992, -13.771429 ], [ 35.435301, -1.533718, -13.82259 ], [ 35.431677, -1.535351, -13.819972 ], [ 35.424286, -1.535523, -13.830437 ], [ 35.414978, -1.537657, -13.83402 ], [ 35.407355, -1.540801, -13.829964 ], [ 35.40759, -1.544184, -13.812671 ], [ 35.409499, -1.549813, -13.781576 ], [ 35.397543, -1.563137, -13.733234 ], [ 35.39371, -1.578638, -13.661594 ], [ 35.392269, -1.595172, -13.581174 ], [ 35.389293, -1.593952, -13.591828 ], [ 35.387926, -1.591204, -13.607649 ], [ 35.381707, -1.590973, -13.618323 ], [ 35.382845, -1.57905, -13.676172 ], [ 35.39004, -1.572566, -13.69757 ], [ 35.390358, -1.570484, -13.707495 ], [ 35.386804, -1.562601, -13.752361 ], [ 35.390617, -1.560446, -13.757304 ], [ 35.394157, -1.561651, -13.745854 ], [ 35.396418, -1.558526, -13.758018 ], [ 35.394547, -1.552007, -13.793501 ], [ 35.390042, -1.547343, -13.82374 ], [ 35.384067, -1.549605, -13.821565 ], [ 35.380431, -1.549443, -13.827944 ], [ 35.376816, -1.544916, -13.856135 ], [ 35.373771, -1.544308, -13.863837 ], [ 35.370951, -1.549084, -13.844255 ], [ 35.369101, -1.547754, -13.853738 ], [ 35.368377, -1.544437, -13.871449 ], [ 35.37068, -1.539202, -13.894125 ], [ 35.371791, -1.532786, -13.924545 ], [ 35.366932, -1.528937, -13.951255 ], [ 35.357413, -1.526058, -13.980241 ], [ 35.350917, -1.52255, -14.007745 ], [ 35.353105, -1.518178, -14.026296 ], [ 35.363703, -1.50931, -14.054514 ], [ 35.373828, -1.510914, -14.030981 ], [ 35.378554, -1.51421, -14.007229 ], [ 35.380674, -1.520561, -13.972169 ], [ 35.382184, -1.522682, -13.959233 ], [ 35.384252, -1.518123, -13.978907 ], [ 35.387732, -1.51876, -13.970386 ], [ 35.389895, -1.521444, -13.953631 ], [ 35.390478, -1.531423, -13.902764 ], [ 35.395273, -1.534298, -13.881023 ], [ 35.394426, -1.536968, -13.868954 ], [ 35.392094, -1.537191, -13.871407 ], [ 35.39165, -1.538338, -13.866347 ], [ 35.392819, -1.543398, -13.839229 ], [ 35.394345, -1.543661, -13.835577 ], [ 35.39658, -1.542002, -13.840454 ], [ 35.396364, -1.533838, -13.881658 ], [ 35.397721, -1.526085, -13.918401 ], [ 35.407719, -1.51865, -13.940322 ], [ 35.412085, -1.512141, -13.966245 ], [ 35.416158, -1.508837, -13.976559 ], [ 35.417292, -1.516255, -13.937655 ], [ 35.436541, -1.514857, -13.915149 ], [ 35.440069, -1.513054, -13.918777 ], [ 35.443043, -1.515195, -13.903485 ] ] ] } },
{ "type": "Feature", "properties": { "name": "Isaaten Conservancy", "type": "conservancy", "area_ha": 2221.8 }, "geometry": { "type": "Polygon", "coordinates": [ [ [ 35.419995, -1.498401, -14.02298 ], [ 35.416158, -1.508837, -13.976559 ], [ 35.412085, -1.512141, -13.966245 ], [ 35.407719, -1.51865, -13.940322 ], [ 35.397721, -1.526085, -13.918401 ], [ 35.396364, -1.533838, -13.881658 ], [ 35.39658, -1.542002, -13.840454 ], [ 35.393991, -1.543633, -13.836255 ], [ 35.392819, -1.543398, -13.839229 ], [ 35.39165, -1.538338, -13.866347 ], [ 35.392094, -1.537191, -13.871407 ], [ 35.394426, -1.536968, -13.868954 ], [ 35.395273, -1.534298, -13.881023 ], [ 35.390478, -1.531423, -13.902764 ], [ 35.389895, -1.521444, -13.953631 ], [ 35.388113, -1.519029, -13.968455 ], [ 35.384252, -1.518123, -13.978907 ], [ 35.382184, -1.522682, -13.959233 ], [ 35.380674, -1.520561, -13.972169 ], [ 35.378554, -1.51421, -14.007229 ], [ 35.373828, -1.510914, -14.030981 ], [ 35.363703, -1.50931, -14.054514 ], [ 35.361901, -1.509794, -14.054846 ], [ 35.368974, -1.504584, -14.070129 ], [ 35.368408, -1.50216, -14.083146 ], [ 35.36619, -1.499639, -14.099178 ], [ 35.362094, -1.501278, -14.097231 ], [ 35.361036, -1.498763, -14.111455 ], [ 35.364436, -1.497222, -14.113976 ], [ 35.363069, -1.495464, -14.124881 ], [ 35.365228, -1.494448, -14.126674 ], [ 35.359977, -1.490507, -14.154469 ], [ 35.364333, -1.484551, -14.177671 ], [ 35.365973, -1.480873, -14.193607 ], [ 35.401674, -1.48705, -14.107962 ], [ 35.414935, -1.490528, -14.070207 ], [ 35.418245, -1.49331, -14.051189 ], [ 35.421367, -1.493348, -14.046214 ], [ 35.420282, -1.495137, -14.038906 ], [ 35.421557, -1.495994, -14.032657 ], [ 35.421557, -1.497002, -14.027599 ], [ 35.419995, -1.498401, -14.02298 ] ] ] } },
{ "type": "Feature", "properties": { "name": "Pardamat Community Conservation Area", "type": "conservancy", "area_ha": 23383.2 }, "geometry": { "type": "Polygon", "coordinates": [ [ [ 35.261558, -1.245417, -15.539021 ], [ 35.262219, -1.22398, -15.646456 ], [ 35.260849, -1.2199, -15.669194 ], [ 35.257069, -1.21354, -15.707155 ], [ 35.255409, -1.206661, -15.744519 ], [ 35.252699, -1.204901, -15.757566 ], [ 35.251249, -1.202501, -15.771932 ], [ 35.250719, -1.189491, -15.838638 ], [ 35.2415, -1.182761, -15.886804 ], [ 35.239534, -1.17784, -15.914743 ], [ 35.264113, -1.177072, -15.881129 ], [ 35.265578, -1.173584, -15.896575 ], [ 35.265321, -1.172097, -15.904506 ], [ 35.266545, -1.172045, -15.902903 ], [ 35.268383, -1.172402, -15.898286 ], [ 35.269558, -1.173683, -15.889998 ], [ 35.270744, -1.176865, -15.87206 ], [ 35.342587, -1.174618, -15.773661 ], [ 35.346199, -1.22031, -15.536706 ], [ 35.360331, -1.238107, -15.425041 ], [ 35.380975, -1.24407, -15.363283 ], [ 35.390881, -1.25626, -15.286481 ], [ 35.390274, -1.292348, -15.105106 ], [ 35.396076, -1.297324, -15.071101 ], [ 35.393778, -1.300177, -15.060216 ], [ 35.396087, -1.302157, -15.046688 ], [ 35.393926, -1.303674, -15.042344 ], [ 35.392858, -1.30633, -15.030577 ], [ 35.393587, -1.308908, -15.01645 ], [ 35.392824, -1.310294, -15.010627 ], [ 35.39328, -1.314588, -14.988265 ], [ 35.390695, -1.319813, -14.965865 ], [ 35.393008, -1.325681, -14.932729 ], [ 35.392323, -1.327551, -14.924348 ], [ 35.39011, -1.329679, -14.917011 ], [ 35.386844, -1.330193, -14.91942 ], [ 35.38654, -1.331309, -14.914258 ], [ 35.384818, -1.331938, -14.913726 ], [ 35.383944, -1.334042, -14.904454 ], [ 35.381919, -1.334235, -14.906583 ], [ 35.380814, -1.337506, -14.891783 ], [ 35.375847, -1.338739, -14.893174 ], [ 35.375657, -1.339624, -14.889003 ], [ 35.373518, -1.34024, -14.889172 ], [ 35.366683, -1.346246, -14.869368 ], [ 35.364275, -1.345976, -14.874409 ], [ 35.362023, -1.347709, -14.869127 ], [ 35.359501, -1.348248, -14.870268 ], [ 35.358392, -1.347363, -14.876425 ], [ 35.357016, -1.34771, -14.876783 ], [ 35.355528, -1.349942, -14.867811 ], [ 35.354193, -1.350586, -14.866611 ], [ 35.34995, -1.350752, -14.872268 ], [ 35.346518, -1.352089, -14.870779 ], [ 35.34483, -1.351638, -14.875636 ], [ 35.343341, -1.353524, -14.868409 ], [ 35.340857, -1.353178, -14.873952 ], [ 35.339406, -1.354756, -14.86822 ], [ 35.337993, -1.35491, -14.869605 ], [ 35.337421, -1.356334, -14.863305 ], [ 35.336007, -1.356604, -14.864109 ], [ 35.336431, -1.359876, -14.846982 ], [ 35.334981, -1.362608, -14.835434 ], [ 35.332188, -1.35953, -14.85521 ], [ 35.329934, -1.359607, -14.858268 ], [ 35.328633, -1.357991, -14.868398 ], [ 35.32395, -1.356991, -14.880595 ], [ 35.323378, -1.358342, -14.874664 ], [ 35.320152, -1.358444, -14.87908 ], [ 35.312299, -1.365621, -14.854939 ], [ 35.307967, -1.360773, -14.885972 ], [ 35.306921, -1.361668, -14.883062 ], [ 35.305534, -1.360111, -14.893026 ], [ 35.306556, -1.359188, -14.896113 ], [ 35.290599, -1.341254, -15.010851 ], [ 35.290032, -1.330892, -15.063952 ], [ 35.288932, -1.326527, -15.087644 ], [ 35.287297, -1.325633, -15.094647 ], [ 35.288723, -1.322939, -15.106057 ], [ 35.281256, -1.317186, -15.14648 ], [ 35.279714, -1.317114, -15.149194 ], [ 35.279543, -1.317785, -15.146071 ], [ 35.277173, -1.317086, -15.153218 ], [ 35.274275, -1.314473, -15.170823 ], [ 35.27366, -1.314791, -15.170158 ], [ 35.268327, -1.311085, -15.196994 ], [ 35.264328, -1.309377, -15.211719 ], [ 35.265039, -1.306805, -15.223611 ], [ 35.264381, -1.299219, -15.2629 ], [ 35.265629, -1.270537, -15.405837 ], [ 35.261558, -1.245417, -15.539021 ] ] ] } }
]
}
