{
"type": "FeatureCollection",
"name": "project_area",
"crs": { "type": "name", "properties": { "name": "urn:ogc:def:crs:OGC:1.3:CRS84" } },
"xy_coordinate_resolution": 1e-06,
"features": [
{ "type": "Feature", "properties": { "name": "Entooma Sidai project area", "type": "project_area", "area_ha": 652022.0 }, "geometry": { "type": "MultiPolygon", "coordinates": [ [ [ [ 35.957686, -2.03836 ], [ 35.963651, -2.028982 ], [ 35.968202, -2.030223 ], [ 35.967788, -2.028362 ], [ 35.966271, -2.026638 ], [ 35.964478, -2.020432 ], [ 35.961996, -2.018777 ], [ 35.959376, -2.018156 ], [ 35.957859, -2.023466 ], [ 35.955859, -2.024914 ], [ 35.949929, -2.025052 ], [ 35.947515, -2.022156 ], [ 35.951653, -2.019191 ], [ 35.953032, -2.016846 ], [ 35.955031, -2.008503 ], [ 35.965168, -2.005814 ], [ 35.959858, -2.002159 ], [ 35.958479, -2.00278 ], [ 35.957031, -2.005124 ], [ 35.955238, -2.005745 ], [ 35.951308, -2.001538 ], [ 35.950205, -1.998504 ], [ 35.950756, -1.996436 ], [ 35.952342, -1.994505 ], [ 35.954618, -1.994229 ], [ 35.960755, -1.999677 ], [ 35.964202, -2.000918 ], [ 35.973649, -1.98954 ], [ 35.972615, -1.969475 ], [ 35.976752, -1.962166 ], [ 35.971925, -1.943686 ], [ 35.977855, -1.939549 ], [ 35.991577, -1.938135 ], [ 35.997645, -1.933584 ], [ 35.9993, -1.923241 ], [ 35.998335, -1.919104 ], [ 36.003299, -1.916484 ], [ 35.993784, -1.909312 ], [ 35.989233, -1.904072 ], [ 35.994887, -1.905175 ], [ 35.999438, -1.908899 ], [ 36.003437, -1.887661 ], [ 36.007437, -1.881317 ], [ 36.009919, -1.878835 ], [ 36.008678, -1.87387 ], [ 36.00592, -1.87387 ], [ 36.001506, -1.877731 ], [ 35.999438, -1.875663 ], [ 36.000265, -1.869871 ], [ 35.998059, -1.870974 ], [ 35.99599, -1.873732 ], [ 35.992818, -1.875111 ], [ 35.991991, -1.878973 ], [ 35.99668, -1.883937 ], [ 35.99861, -1.880489 ], [ 36.000403, -1.879386 ], [ 36.001231, -1.880352 ], [ 36.001782, -1.882834 ], [ 36.000955, -1.885592 ], [ 35.998197, -1.886971 ], [ 35.999024, -1.891798 ], [ 35.994887, -1.890695 ], [ 35.990888, -1.881869 ], [ 35.983303, -1.875663 ], [ 35.976683, -1.878421 ], [ 35.981372, -1.888074 ], [ 35.980407, -1.890281 ], [ 35.975856, -1.885592 ], [ 35.971994, -1.870836 ], [ 35.973235, -1.862286 ], [ 35.974752, -1.858424 ], [ 35.978476, -1.863113 ], [ 35.979165, -1.857459 ], [ 35.982199, -1.855114 ], [ 35.987716, -1.853735 ], [ 35.991301, -1.851874 ], [ 35.996335, -1.846495 ], [ 36.00523, -1.848357 ], [ 36.009643, -1.847943 ], [ 36.008057, -1.845875 ], [ 36.004954, -1.845185 ], [ 36.004472, -1.842565 ], [ 36.005437, -1.840151 ], [ 36.00392, -1.839738 ], [ 36.002472, -1.841737 ], [ 35.999162, -1.840841 ], [ 35.998197, -1.839048 ], [ 35.999438, -1.832015 ], [ 35.988888, -1.828567 ], [ 35.985578, -1.83036 ], [ 35.983234, -1.836842 ], [ 35.979234, -1.834635 ], [ 35.976614, -1.837807 ], [ 35.973718, -1.836979 ], [ 35.971374, -1.83367 ], [ 35.972753, -1.823189 ], [ 35.974959, -1.819603 ], [ 35.975373, -1.8145 ], [ 35.97358, -1.81188 ], [ 35.978545, -1.808984 ], [ 35.983372, -1.807329 ], [ 35.995783, -1.799468 ], [ 36.001024, -1.79478 ], [ 36.003161, -1.794435 ], [ 36.006333, -1.801744 ], [ 36.004816, -1.803813 ], [ 36.005575, -1.806157 ], [ 36.010333, -1.806915 ], [ 36.013987, -1.809605 ], [ 36.028881, -1.810254 ], [ 36.029466, -1.81798 ], [ 36.030677, -1.821559 ], [ 36.028389, -1.823443 ], [ 36.029466, -1.826135 ], [ 36.036017, -1.822725 ], [ 36.036921, -1.821045 ], [ 36.039292, -1.821604 ], [ 36.041401, -1.827436 ], [ 36.038548, -1.82847 ], [ 36.044138, -1.830442 ], [ 36.043824, -1.832999 ], [ 36.041625, -1.833986 ], [ 36.041311, -1.834838 ], [ 36.042736, -1.835208 ], [ 36.046272, -1.840191 ], [ 36.049477, -1.841701 ], [ 36.049848, -1.842629 ], [ 36.048535, -1.844529 ], [ 36.048016, -1.848558 ], [ 36.050823, -1.858392 ], [ 36.049073, -1.862743 ], [ 36.048894, -1.866243 ], [ 36.05033, -1.869652 ], [ 36.052169, -1.871088 ], [ 36.052035, -1.87194 ], [ 36.04526, -1.880419 ], [ 36.042253, -1.87867 ], [ 36.038664, -1.878894 ], [ 36.037318, -1.880016 ], [ 36.036824, -1.881765 ], [ 36.037991, -1.883784 ], [ 36.037408, -1.886655 ], [ 36.037911, -1.889522 ], [ 36.035375, -1.892429 ], [ 36.03389, -1.891563 ], [ 36.033325, -1.888674 ], [ 36.031799, -1.887956 ], [ 36.028344, -1.890379 ], [ 36.027357, -1.890289 ], [ 36.026592, -1.891644 ], [ 36.029584, -1.896362 ], [ 36.031889, -1.898096 ], [ 36.032382, -1.903479 ], [ 36.036151, -1.904242 ], [ 36.037811, -1.906171 ], [ 36.040369, -1.907472 ], [ 36.043734, -1.90635 ], [ 36.044228, -1.906889 ], [ 36.04351, -1.911196 ], [ 36.034177, -1.915009 ], [ 36.032248, -1.91483 ], [ 36.031306, -1.916983 ], [ 36.033773, -1.918239 ], [ 36.033908, -1.919854 ], [ 36.03669, -1.918822 ], [ 36.037811, -1.919495 ], [ 36.036575, -1.929618 ], [ 36.039202, -1.929993 ], [ 36.040504, -1.931294 ], [ 36.04333, -1.938203 ], [ 36.04078, -1.947187 ], [ 36.036731, -1.949151 ], [ 36.039938, -1.95364 ], [ 36.041782, -1.959612 ], [ 36.039185, -1.968316 ], [ 36.039875, -1.97011 ], [ 36.037633, -1.971145 ], [ 36.036977, -1.972939 ], [ 36.03784, -1.974387 ], [ 36.039979, -1.974146 ], [ 36.040255, -1.977768 ], [ 36.038702, -1.98001 ], [ 36.038185, -1.984322 ], [ 36.037219, -1.985529 ], [ 36.037564, -1.988358 ], [ 36.035839, -1.993532 ], [ 36.03677, -1.995809 ], [ 36.036287, -2.002363 ], [ 36.033991, -2.001002 ], [ 36.032374, -2.002431 ], [ 36.036932, -2.006005 ], [ 36.036874, -2.007468 ], [ 36.031906, -2.01523 ], [ 36.031182, -2.01523 ], [ 36.030662, -2.013327 ], [ 36.029215, -2.013988 ], [ 36.028249, -2.017334 ], [ 36.028456, -2.026337 ], [ 36.025205, -2.023699 ], [ 36.023868, -2.028993 ], [ 36.021936, -2.031994 ], [ 36.02335, -2.03641 ], [ 36.02304, -2.038342 ], [ 36.021624, -2.037741 ], [ 36.021377, -2.038347 ], [ 36.022695, -2.041688 ], [ 36.025985, -2.042295 ], [ 36.027387, -2.043757 ], [ 36.027379, -2.08456 ], [ 36.001035, -2.084398 ], [ 36.000819, -2.105288 ], [ 35.964383, -2.084836 ], [ 35.96436, -2.0835 ], [ 35.961166, -2.081781 ], [ 35.962789, -2.079801 ], [ 35.962789, -2.078353 ], [ 35.968029, -2.07794 ], [ 35.972304, -2.072423 ], [ 35.971753, -2.070837 ], [ 35.972718, -2.069803 ], [ 35.977062, -2.069389 ], [ 35.9792, -2.068355 ], [ 35.982992, -2.06539 ], [ 35.983544, -2.062839 ], [ 35.982165, -2.061735 ], [ 35.977821, -2.061666 ], [ 35.976786, -2.062218 ], [ 35.977959, -2.064287 ], [ 35.97389, -2.063045 ], [ 35.970994, -2.061184 ], [ 35.969064, -2.05877 ], [ 35.969822, -2.052702 ], [ 35.966581, -2.047324 ], [ 35.965271, -2.046152 ], [ 35.961823, -2.0456 ], [ 35.961341, -2.043669 ], [ 35.959962, -2.042359 ], [ 35.954376, -2.039325 ], [ 35.957686, -2.03836 ] ] ], [ [ [ 35.299825, -1.051847 ], [ 35.31279, -1.04931 ], [ 35.335057, -1.074395 ], [ 35.355914, -1.076932 ], [ 35.368316, -1.09948 ], [ 35.377335, -1.125975 ], [ 35.413413, -1.125411 ], [ 35.451745, -1.111882 ], [ 35.505297, -1.136685 ], [ 35.547575, -1.14345 ], [ 35.6, -1.131048 ], [ 35.69414, -1.195875 ], [ 35.712179, -1.174454 ], [ 35.666518, -1.145141 ], [ 35.679484, -1.137249 ], [ 35.689067, -1.116955 ], [ 35.717816, -1.132739 ], [ 35.737546, -1.147959 ], [ 35.747917, -1.142197 ], [ 35.750059, -1.141433 ], [ 35.75277, -1.141791 ], [ 35.753499, -1.144703 ], [ 35.755544, -1.146757 ], [ 35.755773, -1.14989 ], [ 35.758672, -1.149874 ], [ 35.760228, -1.15144 ], [ 35.758524, -1.154858 ], [ 35.759566, -1.157642 ], [ 35.757416, -1.158962 ], [ 35.758303, -1.161126 ], [ 35.760183, -1.162899 ], [ 35.759711, -1.166107 ], [ 35.761599, -1.165732 ], [ 35.763777, -1.16678 ], [ 35.76705, -1.164769 ], [ 35.769437, -1.166537 ], [ 35.770221, -1.168521 ], [ 35.771258, -1.168339 ], [ 35.774271, -1.172399 ], [ 35.775676, -1.172895 ], [ 35.775168, -1.174508 ], [ 35.775692, -1.175566 ], [ 35.777188, -1.174683 ], [ 35.778652, -1.179582 ], [ 35.78054, -1.180004 ], [ 35.782253, -1.181599 ], [ 35.784441, -1.181856 ], [ 35.786205, -1.181085 ], [ 35.786702, -1.182544 ], [ 35.78947, -1.181943 ], [ 35.793253, -1.18407 ], [ 35.794457, -1.182822 ], [ 35.795609, -1.182831 ], [ 35.796425, -1.184892 ], [ 35.79908, -1.183761 ], [ 35.799838, -1.181411 ], [ 35.801847, -1.181045 ], [ 35.802826, -1.182928 ], [ 35.80531, -1.182991 ], [ 35.805544, -1.184641 ], [ 35.806386, -1.18538 ], [ 35.807119, -1.184983 ], [ 35.807466, -1.186141 ], [ 35.81157, -1.186699 ], [ 35.814653, -1.192085 ], [ 35.819002, -1.194205 ], [ 35.819335, -1.19755 ], [ 35.818137, -1.199939 ], [ 35.819723, -1.200871 ], [ 35.819319, -1.203674 ], [ 35.821957, -1.204785 ], [ 35.821595, -1.207542 ], [ 35.829089, -1.212914 ], [ 35.828966, -1.214313 ], [ 35.830253, -1.215055 ], [ 35.829596, -1.218052 ], [ 35.832531, -1.219845 ], [ 35.834291, -1.223205 ], [ 35.836939, -1.223003 ], [ 35.838731, -1.225629 ], [ 35.840134, -1.225872 ], [ 35.841823, -1.229535 ], [ 35.843493, -1.228688 ], [ 35.846564, -1.228886 ], [ 35.848188, -1.227651 ], [ 35.847852, -1.225993 ], [ 35.844852, -1.22486 ], [ 35.845065, -1.222177 ], [ 35.848401, -1.219357 ], [ 35.851389, -1.220747 ], [ 35.854366, -1.220862 ], [ 35.857761, -1.218957 ], [ 35.857997, -1.216232 ], [ 35.860643, -1.214614 ], [ 35.862582, -1.215095 ], [ 35.865239, -1.218892 ], [ 35.866893, -1.215903 ], [ 35.8709, -1.214194 ], [ 35.874808, -1.216151 ], [ 35.875824, -1.219227 ], [ 35.876793, -1.219733 ], [ 35.880314, -1.217615 ], [ 35.879532, -1.216064 ], [ 35.877498, -1.215615 ], [ 35.877592, -1.214035 ], [ 35.883476, -1.212624 ], [ 35.885317, -1.213949 ], [ 35.917661, -1.182012 ], [ 35.921372, -1.176817 ], [ 35.939642, -1.142545 ], [ 35.961338, -1.144577 ], [ 35.974867, -1.137813 ], [ 36.001926, -1.136121 ], [ 36.021655, -1.120901 ], [ 36.031802, -1.110754 ], [ 36.04364, -1.092152 ], [ 36.065625, -1.076932 ], [ 36.075771, -1.089897 ], [ 36.059424, -1.100044 ], [ 36.059988, -1.110191 ], [ 36.032366, -1.144577 ], [ 36.010381, -1.156415 ], [ 36.009254, -1.178963 ], [ 36.014327, -1.198129 ], [ 36.022219, -1.200948 ], [ 36.052659, -1.196438 ], [ 36.073517, -1.194747 ], [ 36.080281, -1.206021 ], [ 36.085918, -1.218423 ], [ 36.097756, -1.231388 ], [ 36.10903, -1.22857 ], [ 36.119177, -1.217296 ], [ 36.131015, -1.212786 ], [ 36.147926, -1.226315 ], [ 36.175548, -1.230825 ], [ 36.175548, -1.246608 ], [ 36.194151, -1.240971 ], [ 36.199788, -1.216732 ], [ 36.187386, -1.216168 ], [ 36.169347, -1.223496 ], [ 36.167656, -1.195311 ], [ 36.162019, -1.187419 ], [ 36.156946, -1.172763 ], [ 36.156382, -1.15867 ], [ 36.165401, -1.150778 ], [ 36.169347, -1.171071 ], [ 36.174984, -1.162616 ], [ 36.200915, -1.154724 ], [ 36.211626, -1.159797 ], [ 36.210498, -1.187983 ], [ 36.225718, -1.200948 ], [ 36.23361, -1.145704 ], [ 36.247703, -1.117519 ], [ 36.277016, -1.106808 ], [ 36.307456, -1.057766 ], [ 36.323653, -1.023413 ], [ 36.32645, -1.028557 ], [ 36.328521, -1.029924 ], [ 36.32788, -1.031119 ], [ 36.336478, -1.047684 ], [ 36.348723, -1.174935 ], [ 36.157207, -1.379982 ], [ 36.09888, -1.440502 ], [ 36.050158, -1.492672 ], [ 36.05894, -1.498052 ], [ 36.060054, -1.499474 ], [ 36.061043, -1.508379 ], [ 36.064754, -1.516142 ], [ 36.076142, -1.54749 ], [ 36.08436, -1.560824 ], [ 36.085102, -1.563111 ], [ 36.084793, -1.570657 ], [ 36.08621, -1.573442 ], [ 36.083866, -1.580613 ], [ 36.080464, -1.583582 ], [ 36.079187, -1.593987 ], [ 36.07541, -1.591962 ], [ 36.073691, -1.592688 ], [ 36.07063, -1.597604 ], [ 36.068929, -1.60464 ], [ 36.066529, -1.609277 ], [ 36.065569, -1.610307 ], [ 36.06327, -1.609494 ], [ 36.063642, -1.611407 ], [ 36.065373, -1.613344 ], [ 36.065032, -1.615323 ], [ 36.056899, -1.618569 ], [ 36.056961, -1.61976 ], [ 36.058755, -1.620873 ], [ 36.059311, -1.622234 ], [ 36.056219, -1.632608 ], [ 36.053343, -1.636752 ], [ 36.052137, -1.641142 ], [ 36.050343, -1.642348 ], [ 36.052601, -1.644729 ], [ 36.052384, -1.647822 ], [ 36.051549, -1.648379 ], [ 36.049292, -1.647636 ], [ 36.046163, -1.650181 ], [ 36.046618, -1.651104 ], [ 36.048983, -1.651516 ], [ 36.047653, -1.654176 ], [ 36.050374, -1.654856 ], [ 36.051024, -1.657825 ], [ 36.052632, -1.660113 ], [ 36.053034, -1.661629 ], [ 36.051982, -1.663731 ], [ 36.052137, -1.666668 ], [ 36.054363, -1.666514 ], [ 36.056219, -1.670271 ], [ 36.058353, -1.67123 ], [ 36.057982, -1.677166 ], [ 36.054394, -1.677878 ], [ 36.05424, -1.678558 ], [ 36.05928, -1.683475 ], [ 36.057301, -1.686412 ], [ 36.062311, -1.689365 ], [ 36.063641, -1.694097 ], [ 36.065002, -1.69558 ], [ 36.065187, -1.698672 ], [ 36.062435, -1.698858 ], [ 36.05925, -1.701456 ], [ 36.05792, -1.703265 ], [ 36.057765, -1.706727 ], [ 36.055415, -1.709943 ], [ 36.052137, -1.706201 ], [ 36.048271, -1.704965 ], [ 36.046076, -1.706634 ], [ 36.045736, -1.70917 ], [ 36.043044, -1.710438 ], [ 36.044621, -1.717442 ], [ 36.047838, -1.720132 ], [ 36.048673, -1.731759 ], [ 36.047065, -1.733614 ], [ 36.046076, -1.733676 ], [ 36.043432, -1.730316 ], [ 36.042854, -1.73077 ], [ 36.041498, -1.734805 ], [ 36.041745, -1.73833 ], [ 36.041065, -1.740092 ], [ 36.035684, -1.743092 ], [ 36.035468, -1.750343 ], [ 36.033241, -1.754393 ], [ 36.036242, -1.759244 ], [ 36.036555, -1.76265 ], [ 36.035892, -1.76303 ], [ 36.032381, -1.760428 ], [ 36.030923, -1.760831 ], [ 36.032035, -1.763778 ], [ 36.031788, -1.768107 ], [ 36.026623, -1.772097 ], [ 36.025757, -1.774168 ], [ 36.021397, -1.775714 ], [ 36.020596, -1.776721 ], [ 36.021582, -1.77825 ], [ 36.024304, -1.779672 ], [ 36.029963, -1.779858 ], [ 36.030747, -1.780881 ], [ 36.028548, -1.781902 ], [ 36.028233, -1.79128 ], [ 36.026512, -1.79086 ], [ 36.023155, -1.792497 ], [ 36.023407, -1.794091 ], [ 36.027121, -1.796336 ], [ 36.021729, -1.799021 ], [ 36.020848, -1.800615 ], [ 36.019106, -1.800741 ], [ 36.017805, -1.802986 ], [ 36.016856, -1.803241 ], [ 36.014125, -1.801399 ], [ 36.008195, -1.794848 ], [ 36.004816, -1.789884 ], [ 36.003644, -1.788849 ], [ 36.000127, -1.788987 ], [ 35.998955, -1.786574 ], [ 36.000403, -1.782161 ], [ 36.00392, -1.777886 ], [ 36.008609, -1.776507 ], [ 36.017504, -1.776851 ], [ 36.019641, -1.775197 ], [ 36.016056, -1.773404 ], [ 36.005851, -1.773955 ], [ 36.002127, -1.769887 ], [ 36.0013, -1.767336 ], [ 36.002472, -1.764991 ], [ 36.005161, -1.762578 ], [ 36.009057, -1.764957 ], [ 36.009747, -1.762681 ], [ 36.007195, -1.760268 ], [ 36.003472, -1.760682 ], [ 36.001541, -1.761854 ], [ 36.001955, -1.758889 ], [ 36.004713, -1.758958 ], [ 36.007333, -1.756682 ], [ 36.010091, -1.756958 ], [ 36.010712, -1.755579 ], [ 36.00885, -1.754476 ], [ 36.004989, -1.753855 ], [ 35.999265, -1.755786 ], [ 35.998576, -1.755165 ], [ 35.999197, -1.752476 ], [ 36.005196, -1.748822 ], [ 36.006713, -1.744615 ], [ 36.006402, -1.743167 ], [ 36.004299, -1.743857 ], [ 36.003989, -1.741375 ], [ 36.002748, -1.739754 ], [ 36.000162, -1.739444 ], [ 35.997093, -1.735272 ], [ 35.995507, -1.728722 ], [ 35.995852, -1.727722 ], [ 35.997266, -1.727997 ], [ 35.998507, -1.729825 ], [ 36.001575, -1.725446 ], [ 36.004023, -1.725136 ], [ 36.003989, -1.729652 ], [ 36.005954, -1.72486 ], [ 36.007609, -1.723205 ], [ 36.009057, -1.723171 ], [ 36.008436, -1.720723 ], [ 36.007402, -1.72055 ], [ 36.006471, -1.721688 ], [ 36.002368, -1.721516 ], [ 35.998128, -1.722516 ], [ 35.995439, -1.72024 ], [ 35.993784, -1.716241 ], [ 35.994439, -1.714896 ], [ 35.996094, -1.714379 ], [ 35.999128, -1.717758 ], [ 36.003265, -1.719895 ], [ 35.998679, -1.713103 ], [ 36.001231, -1.707449 ], [ 36.000058, -1.706898 ], [ 35.996266, -1.707449 ], [ 35.993853, -1.705863 ], [ 35.992818, -1.700761 ], [ 35.984199, -1.69752 ], [ 35.981992, -1.697727 ], [ 35.979717, -1.700967 ], [ 35.973373, -1.702622 ], [ 35.966823, -1.702898 ], [ 35.962065, -1.705587 ], [ 35.956273, -1.706346 ], [ 35.945447, -1.694762 ], [ 35.943792, -1.671593 ], [ 35.941861, -1.656975 ], [ 35.936897, -1.647045 ], [ 35.951515, -1.62829 ], [ 35.9551, -1.609259 ], [ 35.951239, -1.600984 ], [ 35.943516, -1.598226 ], [ 35.938, -1.60126 ], [ 35.929725, -1.609259 ], [ 35.921727, -1.612293 ], [ 35.91621, -1.618085 ], [ 35.9129, -1.634082 ], [ 35.9129, -1.649252 ], [ 35.909591, -1.65532 ], [ 35.904902, -1.645666 ], [ 35.898282, -1.649252 ], [ 35.904074, -1.668007 ], [ 35.902971, -1.676834 ], [ 35.902419, -1.698347 ], [ 35.898834, -1.710483 ], [ 35.894697, -1.690073 ], [ 35.882561, -1.653389 ], [ 35.877872, -1.643736 ], [ 35.874286, -1.61312 ], [ 35.869873, -1.623049 ], [ 35.867391, -1.639598 ], [ 35.867391, -1.645666 ], [ 35.868218, -1.662767 ], [ 35.870425, -1.669938 ], [ 35.871252, -1.67573 ], [ 35.861874, -1.674903 ], [ 35.864633, -1.688418 ], [ 35.867942, -1.695037 ], [ 35.871252, -1.713517 ], [ 35.875941, -1.720688 ], [ 35.877044, -1.727032 ], [ 35.876493, -1.731721 ], [ 35.879803, -1.744409 ], [ 35.884216, -1.753786 ], [ 35.878148, -1.759578 ], [ 35.878975, -1.76868 ], [ 35.886698, -1.778058 ], [ 35.893042, -1.792676 ], [ 35.902833, -1.788401 ], [ 35.908625, -1.791711 ], [ 35.913314, -1.797503 ], [ 35.915797, -1.813501 ], [ 35.913866, -1.832808 ], [ 35.908625, -1.84715 ], [ 35.906419, -1.855976 ], [ 35.902282, -1.862872 ], [ 35.893731, -1.869491 ], [ 35.889594, -1.87087 ], [ 35.886284, -1.860665 ], [ 35.897317, -1.850184 ], [ 35.901178, -1.838876 ], [ 35.907246, -1.806329 ], [ 35.90173, -1.799986 ], [ 35.892352, -1.800813 ], [ 35.88656, -1.803571 ], [ 35.879665, -1.812949 ], [ 35.884905, -1.827291 ], [ 35.884353, -1.83529 ], [ 35.876079, -1.844392 ], [ 35.86808, -1.844944 ], [ 35.862288, -1.833359 ], [ 35.863391, -1.817638 ], [ 35.860633, -1.810191 ], [ 35.850152, -1.809088 ], [ 35.84436, -1.819844 ], [ 35.853186, -1.827291 ], [ 35.855944, -1.839427 ], [ 35.855944, -1.845771 ], [ 35.857875, -1.851563 ], [ 35.860633, -1.855425 ], [ 35.867529, -1.855976 ], [ 35.873872, -1.858459 ], [ 35.875252, -1.86232 ], [ 35.868356, -1.868388 ], [ 35.855117, -1.887419 ], [ 35.850428, -1.898176 ], [ 35.849325, -1.905072 ], [ 35.849325, -1.91638 ], [ 35.837465, -1.926585 ], [ 35.84105, -1.939273 ], [ 35.851807, -1.941755 ], [ 35.862012, -1.933481 ], [ 35.860082, -1.946168 ], [ 35.86808, -1.951409 ], [ 35.885181, -1.937894 ], [ 35.873872, -1.951409 ], [ 35.881595, -1.959959 ], [ 35.903109, -1.95334 ], [ 35.906695, -1.94341 ], [ 35.919382, -1.942031 ], [ 35.927381, -1.947272 ], [ 35.929312, -1.952236 ], [ 35.926278, -1.964648 ], [ 35.9169, -1.974026 ], [ 35.91028, -1.976508 ], [ 35.921865, -1.986989 ], [ 35.927381, -2.01595 ], [ 35.934276, -2.020363 ], [ 35.938689, -2.029189 ], [ 35.936759, -2.037188 ], [ 35.933173, -2.043256 ], [ 35.927208, -2.046083 ], [ 35.927691, -2.051737 ], [ 35.926174, -2.050634 ], [ 35.925071, -2.051392 ], [ 35.924657, -2.056288 ], [ 35.926726, -2.056288 ], [ 35.931415, -2.058081 ], [ 35.932932, -2.060425 ], [ 35.931223, -2.066076 ], [ 35.527574, -1.838904 ], [ 35.492713, -1.818437 ], [ 35.347241, -1.737068 ], [ 35.352941, -1.730892 ], [ 35.352818, -1.727391 ], [ 35.353859, -1.726499 ], [ 35.358023, -1.725607 ], [ 35.373638, -1.705976 ], [ 35.388063, -1.69274 ], [ 35.389402, -1.688874 ], [ 35.388807, -1.686345 ], [ 35.391042, -1.684523 ], [ 35.38774, -1.67938 ], [ 35.383814, -1.679856 ], [ 35.380602, -1.679172 ], [ 35.377241, -1.675781 ], [ 35.374228, -1.676357 ], [ 35.37272, -1.675811 ], [ 35.372125, -1.673015 ], [ 35.370073, -1.671558 ], [ 35.366771, -1.671677 ], [ 35.366474, -1.670725 ], [ 35.368972, -1.669089 ], [ 35.369062, -1.667691 ], [ 35.364456, -1.663278 ], [ 35.363202, -1.663765 ], [ 35.363148, -1.666331 ], [ 35.359514, -1.668197 ], [ 35.359098, -1.670428 ], [ 35.357997, -1.671171 ], [ 35.356991, -1.669581 ], [ 35.356778, -1.66671 ], [ 35.353416, -1.666076 ], [ 35.355154, -1.662271 ], [ 35.359258, -1.657937 ], [ 35.362294, -1.652432 ], [ 35.36355, -1.649564 ], [ 35.363864, -1.642844 ], [ 35.367507, -1.637066 ], [ 35.372825, -1.63089 ], [ 35.373767, -1.628106 ], [ 35.375547, -1.626473 ], [ 35.37919, -1.62551 ], [ 35.386951, -1.618788 ], [ 35.386901, -1.606879 ], [ 35.38437, -1.599684 ], [ 35.386143, -1.591469 ], [ 35.387926, -1.591204 ], [ 35.389293, -1.593952 ], [ 35.392269, -1.595172 ], [ 35.39371, -1.578638 ], [ 35.397543, -1.563137 ], [ 35.409499, -1.549813 ], [ 35.40759, -1.544184 ], [ 35.407355, -1.540801 ], [ 35.414978, -1.537657 ], [ 35.424286, -1.535523 ], [ 35.431677, -1.535351 ], [ 35.435301, -1.533718 ], [ 35.44842, -1.53992 ], [ 35.461088, -1.533817 ], [ 35.478077, -1.549226 ], [ 35.484981, -1.552844 ], [ 35.496999, -1.552561 ], [ 35.497082, -1.548064 ], [ 35.506105, -1.548112 ], [ 35.504969, -1.542001 ], [ 35.517239, -1.53544 ], [ 35.515958, -1.535198 ], [ 35.510923, -1.531226 ], [ 35.507193, -1.506814 ], [ 35.507444, -1.502945 ], [ 35.508558, -1.501924 ], [ 35.508333, -1.498957 ], [ 35.505642, -1.497155 ], [ 35.502963, -1.480119 ], [ 35.483654, -1.46372 ], [ 35.486599, -1.463676 ], [ 35.486642, -1.462607 ], [ 35.460376, -1.440424 ], [ 35.446708, -1.452871 ], [ 35.449535, -1.469709 ], [ 35.4635, -1.49033 ], [ 35.458895, -1.514513 ], [ 35.458353, -1.514559 ], [ 35.443043, -1.515195 ], [ 35.440069, -1.513054 ], [ 35.436541, -1.514857 ], [ 35.417292, -1.516255 ], [ 35.416158, -1.508837 ], [ 35.419977, -1.497878 ], [ 35.421557, -1.497002 ], [ 35.421557, -1.495994 ], [ 35.420282, -1.495137 ], [ 35.421215, -1.493157 ], [ 35.418245, -1.49331 ], [ 35.414935, -1.490528 ], [ 35.401674, -1.48705 ], [ 35.365973, -1.480873 ], [ 35.368364, -1.472376 ], [ 35.372456, -1.465077 ], [ 35.370258, -1.46493 ], [ 35.369217, -1.463975 ], [ 35.369096, -1.462211 ], [ 35.370017, -1.461732 ], [ 35.369571, -1.461134 ], [ 35.366273, -1.461108 ], [ 35.365144, -1.460541 ], [ 35.36428, -1.45824 ], [ 35.360264, -1.457515 ], [ 35.359823, -1.453669 ], [ 35.35406, -1.451647 ], [ 35.353964, -1.450193 ], [ 35.351851, -1.447784 ], [ 35.349455, -1.447691 ], [ 35.348522, -1.446353 ], [ 35.346506, -1.446251 ], [ 35.347435, -1.445538 ], [ 35.346787, -1.443768 ], [ 35.349243, -1.442569 ], [ 35.351946, -1.442816 ], [ 35.352936, -1.441236 ], [ 35.360093, -1.442245 ], [ 35.362625, -1.440341 ], [ 35.367536, -1.43939 ], [ 35.368888, -1.438438 ], [ 35.369383, -1.435278 ], [ 35.372809, -1.436896 ], [ 35.374618, -1.440513 ], [ 35.37675, -1.441788 ], [ 35.378063, -1.440589 ], [ 35.381528, -1.440018 ], [ 35.381109, -1.437524 ], [ 35.383088, -1.437258 ], [ 35.386724, -1.434707 ], [ 35.389884, -1.438038 ], [ 35.392644, -1.437467 ], [ 35.39569, -1.438152 ], [ 35.397042, -1.439998 ], [ 35.402524, -1.443425 ], [ 35.405493, -1.443406 ], [ 35.407759, -1.441464 ], [ 35.406407, -1.440227 ], [ 35.406464, -1.438818 ], [ 35.407797, -1.438038 ], [ 35.409624, -1.438533 ], [ 35.409967, -1.437409 ], [ 35.411528, -1.436991 ], [ 35.411889, -1.434706 ], [ 35.414174, -1.432517 ], [ 35.414059, -1.431661 ], [ 35.415982, -1.431356 ], [ 35.416496, -1.429338 ], [ 35.418419, -1.4293 ], [ 35.420227, -1.426502 ], [ 35.421674, -1.426121 ], [ 35.42154, -1.424713 ], [ 35.424472, -1.422295 ], [ 35.423711, -1.420525 ], [ 35.424643, -1.418831 ], [ 35.427803, -1.416927 ], [ 35.428317, -1.417803 ], [ 35.428907, -1.415404 ], [ 35.433571, -1.413919 ], [ 35.434466, -1.412739 ], [ 35.43517, -1.413253 ], [ 35.435456, -1.410988 ], [ 35.43774, -1.409884 ], [ 35.437683, -1.409275 ], [ 35.436065, -1.409484 ], [ 35.434999, -1.408266 ], [ 35.436217, -1.407028 ], [ 35.437588, -1.407866 ], [ 35.436636, -1.40522 ], [ 35.438178, -1.404421 ], [ 35.436624, -1.403619 ], [ 35.438194, -1.403048 ], [ 35.437409, -1.400164 ], [ 35.440222, -1.399179 ], [ 35.440578, -1.397622 ], [ 35.439251, -1.396637 ], [ 35.440336, -1.396409 ], [ 35.441721, -1.393939 ], [ 35.441164, -1.39214 ], [ 35.442517, -1.39189 ], [ 35.442934, -1.38893 ], [ 35.444057, -1.389083 ], [ 35.446208, -1.387579 ], [ 35.446646, -1.387122 ], [ 35.445808, -1.386246 ], [ 35.447065, -1.385884 ], [ 35.447293, -1.384971 ], [ 35.446722, -1.383924 ], [ 35.449121, -1.383143 ], [ 35.449254, -1.382134 ], [ 35.448074, -1.38084 ], [ 35.449749, -1.377661 ], [ 35.453442, -1.378156 ], [ 35.45546, -1.376462 ], [ 35.455498, -1.375301 ], [ 35.456874, -1.375112 ], [ 35.458488, -1.375183 ], [ 35.459316, -1.376939 ], [ 35.461415, -1.376382 ], [ 35.462328, -1.377339 ], [ 35.465012, -1.376468 ], [ 35.465255, -1.375397 ], [ 35.468924, -1.374027 ], [ 35.468881, -1.373084 ], [ 35.470081, -1.372371 ], [ 35.471794, -1.373541 ], [ 35.472561, -1.37065 ], [ 35.473771, -1.369622 ], [ 35.478758, -1.3677 ], [ 35.482608, -1.367615 ], [ 35.485146, -1.366491 ], [ 35.487005, -1.364686 ], [ 35.487374, -1.362141 ], [ 35.484922, -1.357317 ], [ 35.485037, -1.353709 ], [ 35.483488, -1.349481 ], [ 35.483338, -1.34249 ], [ 35.48187, -1.339306 ], [ 35.478397, -1.335973 ], [ 35.473758, -1.335949 ], [ 35.472346, -1.333113 ], [ 35.469256, -1.333129 ], [ 35.468244, -1.330984 ], [ 35.466835, -1.330444 ], [ 35.470085, -1.32453 ], [ 35.470182, -1.321015 ], [ 35.469065, -1.318328 ], [ 35.465727, -1.316436 ], [ 35.461366, -1.318342 ], [ 35.457764, -1.316265 ], [ 35.450481, -1.317879 ], [ 35.44939, -1.317167 ], [ 35.448503, -1.314524 ], [ 35.445686, -1.313194 ], [ 35.444661, -1.314077 ], [ 35.443139, -1.318133 ], [ 35.440407, -1.320425 ], [ 35.439753, -1.323798 ], [ 35.436269, -1.325118 ], [ 35.435923, -1.328617 ], [ 35.434186, -1.330341 ], [ 35.434135, -1.332656 ], [ 35.432412, -1.335636 ], [ 35.432224, -1.341882 ], [ 35.4305, -1.346231 ], [ 35.431591, -1.350506 ], [ 35.433883, -1.352887 ], [ 35.433634, -1.354557 ], [ 35.431087, -1.356901 ], [ 35.433193, -1.358752 ], [ 35.433196, -1.361208 ], [ 35.430145, -1.361378 ], [ 35.42758, -1.362883 ], [ 35.424999, -1.36579 ], [ 35.42395, -1.369716 ], [ 35.421527, -1.370639 ], [ 35.419771, -1.370284 ], [ 35.418682, -1.368834 ], [ 35.416402, -1.36841 ], [ 35.414446, -1.366327 ], [ 35.407351, -1.366762 ], [ 35.403012, -1.364681 ], [ 35.4006, -1.36457 ], [ 35.402513, -1.361043 ], [ 35.401699, -1.360372 ], [ 35.402113, -1.359701 ], [ 35.400971, -1.357303 ], [ 35.401585, -1.357374 ], [ 35.401585, -1.356046 ], [ 35.399743, -1.350978 ], [ 35.402127, -1.350964 ], [ 35.40207, -1.350136 ], [ 35.403213, -1.349707 ], [ 35.402827, -1.348879 ], [ 35.404412, -1.348165 ], [ 35.404141, -1.346823 ], [ 35.404911, -1.345767 ], [ 35.409494, -1.344068 ], [ 35.409423, -1.343397 ], [ 35.410993, -1.342897 ], [ 35.413806, -1.339299 ], [ 35.420702, -1.337072 ], [ 35.419202, -1.333689 ], [ 35.42093, -1.332646 ], [ 35.420059, -1.33099 ], [ 35.420702, -1.329206 ], [ 35.417818, -1.326193 ], [ 35.419388, -1.323281 ], [ 35.419445, -1.320654 ], [ 35.420644, -1.320269 ], [ 35.421273, -1.318998 ], [ 35.42043, -1.317113 ], [ 35.421587, -1.315015 ], [ 35.420801, -1.314986 ], [ 35.418258, -1.312018 ], [ 35.414032, -1.312647 ], [ 35.412976, -1.310919 ], [ 35.40915, -1.309477 ], [ 35.408764, -1.308392 ], [ 35.397328, -1.298484 ], [ 35.396214, -1.302182 ], [ 35.393778, -1.300177 ], [ 35.396076, -1.297324 ], [ 35.390274, -1.292348 ], [ 35.390881, -1.25626 ], [ 35.380975, -1.24407 ], [ 35.360331, -1.238107 ], [ 35.346199, -1.22031 ], [ 35.342587, -1.174618 ], [ 35.300543, -1.17593 ], [ 35.300757, -1.173099 ], [ 35.305441, -1.162283 ], [ 35.310654, -1.160941 ], [ 35.322849, -1.163037 ], [ 35.343658, -1.154839 ], [ 35.346362, -1.148663 ], [ 35.343649, -1.143648 ], [ 35.324857, -1.142307 ], [ 35.318413, -1.143668 ], [ 35.308143, -1.138361 ], [ 35.304507, -1.129758 ], [ 35.30385, -1.117564 ], [ 35.305053, -1.115845 ], [ 35.305984, -1.111822 ], [ 35.306403, -1.101851 ], [ 35.308387, -1.099453 ], [ 35.307988, -1.096923 ], [ 35.299514, -1.096125 ], [ 35.299376, -1.088133 ], [ 35.287761, -1.096812 ], [ 35.268557, -1.060855 ], [ 35.269948, -1.052411 ], [ 35.274176, -1.062275 ], [ 35.284605, -1.066785 ], [ 35.289678, -1.05692 ], [ 35.299825, -1.051847 ] ], [ [ 35.59193, -1.46241 ], [ 35.588998, -1.460311 ], [ 35.610861, -1.428575 ], [ 35.596129, -1.418443 ], [ 35.593092, -1.422922 ], [ 35.589041, -1.420155 ], [ 35.587543, -1.422307 ], [ 35.591555, -1.425101 ], [ 35.590084, -1.427306 ], [ 35.587236, -1.425355 ], [ 35.584241, -1.429726 ], [ 35.581473, -1.427266 ], [ 35.579026, -1.426264 ], [ 35.57571, -1.430448 ], [ 35.577983, -1.431985 ], [ 35.575362, -1.436931 ], [ 35.566564, -1.430956 ], [ 35.563031, -1.435562 ], [ 35.562765, -1.433168 ], [ 35.56156, -1.432972 ], [ 35.558143, -1.434456 ], [ 35.55607, -1.43405 ], [ 35.555006, -1.43552 ], [ 35.553606, -1.435926 ], [ 35.549124, -1.434316 ], [ 35.546892, -1.43508 ], [ 35.545856, -1.436344 ], [ 35.544807, -1.436236 ], [ 35.543597, -1.437796 ], [ 35.541553, -1.436922 ], [ 35.536901, -1.437822 ], [ 35.532961, -1.44164 ], [ 35.532903, -1.445327 ], [ 35.529918, -1.447113 ], [ 35.527522, -1.446687 ], [ 35.524373, -1.450736 ], [ 35.524357, -1.451924 ], [ 35.528125, -1.458097 ], [ 35.525719, -1.457828 ], [ 35.524626, -1.464711 ], [ 35.535393, -1.46718 ], [ 35.535544, -1.465046 ], [ 35.537294, -1.464233 ], [ 35.542004, -1.468199 ], [ 35.542748, -1.470209 ], [ 35.54655, -1.471916 ], [ 35.548905, -1.471393 ], [ 35.549594, -1.470099 ], [ 35.552734, -1.46886 ], [ 35.554442, -1.469108 ], [ 35.555983, -1.457009 ], [ 35.569378, -1.463351 ], [ 35.571731, -1.4606 ], [ 35.58288, -1.468851 ], [ 35.585993, -1.464617 ], [ 35.588961, -1.466716 ], [ 35.59193, -1.46241 ] ] ] ] } }
]
}
